{
  "type" : "FeatureCollection",
  "features" : [{"type":"Feature","id":1,"geometry":{"type":"MultiPolygon","coordinates":[[[[-96.630345062853678,32.867128954808734],[-96.630178523852265,32.867133639484564],[-96.630012484534873,32.86714549408633],[-96.629847379645767,32.867164488253941],[-96.629683639299927,32.867190571628754],[-96.629521689922768,32.867223677492468],[-96.629361954446637,32.867263717350049],[-96.629204850947247,32.867310589027575],[-96.629050787589222,32.867364168408656],[-96.628900166644087,32.867424316767398],[-96.628753381412352,32.867490877074182],[-96.62861081401816,32.867563675745934],[-96.628472837582521,32.867642521798352],[-96.628339811780393,32.867727211249701],[-96.628212083004428,32.867817522606188],[-96.628192498453075,32.867832222154213],[-96.627591389471107,32.868287130074911],[-96.627572046244993,32.868302049931181],[-96.627469324677563,32.868382859871531],[-96.627353174288089,32.868483692566222],[-96.627243275377921,32.868589398294482],[-96.62713991527707,32.868699701627548],[-96.627043364627795,32.868814314958051],[-96.626953873039696,32.868932940194966],[-96.626871676709158,32.869055265345388],[-96.626796988463695,32.869180973294192],[-96.626730002269909,32.869309735594705],[-96.626670895209216,32.869441217037611],[-96.626619820086887,32.869575072749278],[-96.626576910519304,32.86971095555235],[-96.626542277952581,32.869848509562821],[-96.626516013573365,32.869987376565248],[-96.626498186233761,32.870127194151664],[-96.626488841315521,32.870267597499591],[-96.6264880039068,32.870408220357632],[-96.626495675558871,32.870548695865565],[-96.626511837462957,32.870688657540107],[-96.626536447207144,32.870827740094605],[-96.626569439780226,32.87096558127282],[-96.626610729776857,32.871101820098104],[-96.626660209027804,32.871236103138571],[-96.626717750038438,32.871368078269725],[-96.626783200377318,32.871497401759626],[-96.626856390262759,32.87162373575346],[-96.626937130259336,32.871746752732953],[-96.62702520722722,32.871866129085966],[-96.627120393623414,32.871981554383666],[-96.627222440143356,32.87209272757611],[-96.627331079934891,32.872199358908645],[-96.627426673041555,32.872284359902416],[-96.627445987671507,32.872301205917381],[-96.628268895854035,32.87300569807136],[-96.628288484391376,32.873022322376208],[-96.628409447073935,32.873119047025298],[-96.628536104506139,32.873210432996224],[-96.628668126932695,32.87329624132947],[-96.628805170064055,32.873376249861359],[-96.628946875239791,32.87345024871054],[-96.629092873545389,32.87351804490234],[-96.629242783704683,32.873579461411147],[-96.62939621415525,32.873634339021429],[-96.629552766388628,32.873682532799151],[-96.629712030409792,32.87372391920448],[-96.629873590381237,32.873758388104079],[-96.630037025399062,32.873785850924463],[-96.630201909689561,32.873806235235151],[-96.630367811408973,32.87381948833233],[-96.630534299096183,32.873825576501659],[-96.630700938594003,32.873824481324213],[-96.630867293793187,32.873816208732492],[-96.631032931336918,32.873800777383522],[-96.631197419126892,32.873778230368615],[-96.631360327785657,32.873748624406645],[-96.631521232535476,32.873712037121543],[-96.631679714367081,32.873668564361829],[-96.631835357899604,32.873618320144736],[-96.631987757899196,32.873561434113547],[-96.632136516975564,32.873498055996166],[-96.632281246848606,32.873428350215583],[-96.632421570357778,32.873352499556141],[-96.632557120555646,32.873270700621774],[-96.632675504688038,32.873191639518744],[-96.632737044827692,32.873148549671754],[-96.632749084953119,32.873140078607129],[-96.632839112477313,32.873074021318182],[-96.632941381659975,32.872996166170978],[-96.632976311028656,32.872969185069437],[-96.63306519207967,32.872896828299943],[-96.633162493028721,32.87281456064288],[-96.633192775698106,32.872788615643195],[-96.633299299782067,32.87269157510179],[-96.6333747919209,32.87261940110379],[-96.633421616515236,32.872576276315911],[-96.633455452215941,32.872546185342003],[-96.633541310460245,32.872466779348187],[-96.633647971467269,32.872358734197803],[-96.633747954638253,32.872246234435586],[-96.63384100096566,32.872129572528586],[-96.633926867037502,32.872009053996557],[-96.634005328442683,32.871884992077376],[-96.634076180677496,32.871757712268753],[-96.634139239439108,32.871627544202326],[-96.634194339261512,32.871494829741636],[-96.634241337051193,32.871359914036056],[-96.634280109816743,32.871223149077153],[-96.63431055687289,32.871084891947845],[-96.63433259883611,32.870945502988981],[-96.634346177623527,32.870805345799347],[-96.63435125862523,32.870664786388097],[-96.634347828629231,32.870524191313493],[-96.634335895820797,32.870383927683179],[-96.634315491987294,32.870244361403394],[-96.634286670410063,32.870105856221393],[-96.634249505864588,32.86996877372507],[-96.634204095754498,32.869833471565137],[-96.634150558037234,32.869700301594406],[-96.634089033232499,32.869569613534253],[-96.634019681538646,32.869441745863682],[-96.633942683608495,32.869317033972742],[-96.633858240842855,32.869195802036863],[-96.633766574157022,32.869078367503754],[-96.633667920966786,32.868965035594094],[-96.633646256747383,32.868941696589054],[-96.632947883699089,32.868197062179846],[-96.632937708395886,32.868185253636625],[-96.632844155114611,32.868087059962889],[-96.632732322473984,32.86798280877381],[-96.632614328140278,32.867883512766262],[-96.632490479707187,32.86778943107408],[-96.632361101366541,32.867700807896654],[-96.632226529498197,32.867617875999748],[-96.632087116108394,32.867540850478825],[-96.631943224387157,32.867469933162994],[-96.631795229941787,32.867405308128696],[-96.631643518526744,32.867347145255941],[-96.631488485169797,32.86729559478399],[-96.631330536149278,32.867250791880807],[-96.631170082672838,32.867212853769232],[-96.631007543017944,32.867181879782322],[-96.630843341560379,32.867157948627145],[-96.630677906373549,32.867141125552891],[-96.630511668551407,32.867131451488724],[-96.630345062853678,32.867128954808734]]],[[[-96.661627972621574,32.924636514026119],[-96.661720822719545,32.924727535287133],[-96.661835876002911,32.924829312612722],[-96.661956940867086,32.924926002938733],[-96.662083701726218,32.925017353307595],[-96.662215828555475,32.925103124852448],[-96.662352976793542,32.925183095505645],[-96.66249478750477,32.925257055484913],[-96.662640891499734,32.925324811916823],[-96.662790907226224,32.925386187879639],[-96.662944442846495,32.925441024263634],[-96.663101099578029,32.925489176242046],[-96.66326046715308,32.92553052038425],[-96.663422129463001,32.925564946667514],[-96.663585665337649,32.925592366629317],[-96.663750648740233,32.925612707950819],[-96.663916647567646,32.92562591804078],[-96.664083230106385,32.925631963296695],[-96.664249961951228,32.925630825411666],[-96.664343379410965,32.92562652215792],[-96.664416431889066,32.925622855361603],[-96.665171767576695,32.92558346689119],[-96.665331336061712,32.92557507305748],[-96.665404348802696,32.925570539001427],[-96.665570072711574,32.925555064438626],[-96.665734643587086,32.925532474755791],[-96.665897631834099,32.925502826782989],[-96.66605861246758,32.925466198253993],[-96.666217166280632,32.925422685124396],[-96.666372877704063,32.925372401517464],[-96.666525341326476,32.925315477178934],[-96.666674159592461,32.92525206193659],[-96.666818944066947,32.92518232031032],[-96.666959317447549,32.925106435177874],[-96.66709491265587,32.925024603233311],[-96.66722537695783,32.924937039610057],[-96.667350368979115,32.924843971479021],[-96.667469562857534,32.924745641768894],[-96.667582648275797,32.924642308263103],[-96.667689329552232,32.924534239058111],[-96.667789327620682,32.924421717131992],[-96.667882383435185,32.924305035009205],[-96.667968253559096,32.924184498262257],[-96.66804671357032,32.924060420176765],[-96.668117558969385,32.923933126292468],[-96.668180605470695,32.923802946277632],[-96.668235687640745,32.923670222027148],[-96.668282662432006,32.923535298715763],[-96.668321406912838,32.923398528355037],[-96.668351820472296,32.923260268041773],[-96.66837382381388,32.923120878125182],[-96.6683873589554,32.922980722206674],[-96.668392234023329,32.922857250334161],[-96.668392592040306,32.922829415237395],[-96.668400172317703,32.922240603583575],[-96.668400329043095,32.922223507770205],[-96.668397776738416,32.922120506874187],[-96.668398532601927,32.922112682425158],[-96.668403215417484,32.922001581100986],[-96.668404402628312,32.921936341452437],[-96.668413218812219,32.92145305873008],[-96.668413570079295,32.921423496556024],[-96.668413334056339,32.921375204783232],[-96.668408384875562,32.921051533189377],[-96.668405137600914,32.920959235448471],[-96.668393147008985,32.920818979571607],[-96.668372681057903,32.920679423227895],[-96.668343793190999,32.920540930138444],[-96.668306558356448,32.92040386185986],[-96.66826107414181,32.920268576005654],[-96.66820745869687,32.920135424386189],[-96.668145852745539,32.920004756674793],[-96.668076416696792,32.919876911297514],[-96.667999331424042,32.919752223586165],[-96.667914798555799,32.919631017653145],[-96.66782303924316,32.919513610878134],[-96.667724291142221,32.919400308409713],[-96.66761881256663,32.91929140688606],[-96.667506879469499,32.919187188935979],[-96.667388783141476,32.919087927639012],[-96.667264831442196,32.918993882038748],[-96.667135348833057,32.918905296239984],[-96.667000671965823,32.918822402911331],[-96.666861153120621,32.918745417047475],[-96.666717155762868,32.918674540374127],[-96.6665690557749,32.918609956861644],[-96.666417239186842,32.918551836281885],[-96.666262101300035,32.918500328763976],[-96.666104048666455,32.918455569363289],[-96.665943492763972,32.918417675189524],[-96.665780852137004,32.918386745461007],[-96.665616551424179,32.918362858769505],[-96.665451018958706,32.918346080248114],[-96.665284686086821,32.918336450709958],[-96.665117987818221,32.91833399841267],[-96.665084950648264,32.918335955688583],[-96.664951355597779,32.918338432534753],[-96.663963990796333,32.918346815809372],[-96.663965991726187,32.918115480453935],[-96.66396604257406,32.918108294075196],[-96.663962566101489,32.917967704154023],[-96.663950582588768,32.917827447591911],[-96.663930123955851,32.917687890276596],[-96.663901243627009,32.9175493959318],[-96.663864016530766,32.91741232611728],[-96.663818540234374,32.917277038450628],[-96.663764932867295,32.91714388474697],[-96.663703335131984,32.917013214684914],[-96.663701328100473,32.917009518146521],[-96.6638413101157,32.917002525480029],[-96.663950997166395,32.916993093709671],[-96.664079240892775,32.916980216831384],[-96.664135262740771,32.91697417587541],[-96.66429981879395,32.916951587868269],[-96.664462792473287,32.916921941513749],[-96.664623758831738,32.916885314541162],[-96.66478229869972,32.916841802902283],[-96.664937996544353,32.916791520716302],[-96.665072463409274,32.916741724530603],[-96.665257739376642,32.916668877206085],[-96.66629441346636,32.916261264499795],[-96.666312388167952,32.916254140917403],[-96.666396117297523,32.916219449865558],[-96.666599646665418,32.916132056123203],[-96.666659991197903,32.91610638298674],[-96.666735928769953,32.916073014927576],[-96.66688069892146,32.916003272808098],[-96.667021058409915,32.915927387147185],[-96.667156640193227,32.915845554640264],[-96.667287091572447,32.915757990422179],[-96.66741207120694,32.915664921665396],[-96.667531253266944,32.915566591300262],[-96.66764432746568,32.915463257111874],[-96.667750998151135,32.915355187198472],[-96.667850986284492,32.915242664540109],[-96.667944032845853,32.91512598166301],[-96.668029894422673,32.91500544414172],[-96.668108346615028,32.914881365263859],[-96.668179184944023,32.914754070571277],[-96.668242225142507,32.914623889734308],[-96.668287952174921,32.914513695039695],[-96.668787621451628,32.914362063053375],[-96.668869268654873,32.914460942912072],[-96.668971411591983,32.914572080428151],[-96.669080148772238,32.914678674106042],[-96.669195197681645,32.914780445639444],[-96.669316257120727,32.914877129801354],[-96.669443011517686,32.914968473650198],[-96.669575130864402,32.915054238336154],[-96.669712270619186,32.915134201809444],[-96.669854071868713,32.915208154306526],[-96.670000165447874,32.915275902973526],[-96.670150169831999,32.915337270908907],[-96.670165631330818,32.915342792744241],[-96.670214618145522,32.915402116785422],[-96.67031676372163,32.915513253181999],[-96.67042550354175,32.915619845675472],[-96.670540555085211,32.915721615962561],[-96.670661617145598,32.915818298819431],[-96.670788374144266,32.91590964130809],[-96.670920496066316,32.915995404582162],[-96.671057638363337,32.916075366595535],[-96.671199442115366,32.916149317588548],[-96.67134553815076,32.916217064711205],[-96.671495544938452,32.916278431066004],[-96.671649070663875,32.916333257568411],[-96.671805716570091,32.916381399417219],[-96.671965072417947,32.916422733208499],[-96.672126722129192,32.916457148946314],[-96.672290244566668,32.916484558195734],[-96.672367986146327,32.916494139225804],[-96.672406044252284,32.916552038502111],[-96.672494221914732,32.916671380718789],[-96.672589510497161,32.916786769524684],[-96.672691660427972,32.916897903965364],[-96.672800404585047,32.917004494387406],[-96.672915460436414,32.91710626249295],[-96.673036526764136,32.917202943063842],[-96.673137324977574,32.91727633415735],[-96.673339804630444,32.917417783498991],[-96.673365767710067,32.917435732467837],[-96.673497894172783,32.917521493052675],[-96.673635040932155,32.917601452283854],[-96.673776849056537,32.917675400408854],[-96.673922949362876,32.917743144585238],[-96.674072960308948,32.917804507923208],[-96.674226490069358,32.917859331346044],[-96.67438313987661,32.917907470060605],[-96.674511913573753,32.91794144813894],[-96.674621958996582,32.917968391280418],[-96.675038752510872,32.918070172710891],[-96.675067173914897,32.91807699568259],[-96.675228827645753,32.918111407550398],[-96.675392353902623,32.918138812893091],[-96.675557326673626,32.918159139429825],[-96.675723313883609,32.918172334608244],[-96.675889883849379,32.91817836486458],[-96.676056602198159,32.918177211930939],[-96.676223032615596,32.918168881890871],[-96.676388741547569,32.918153393551265],[-96.676553298676993,32.918131035091697],[-96.676787707853762,32.918129757540527],[-96.676875083411829,32.91812825691617],[-96.677041513668485,32.918119925834802],[-96.677207222377092,32.918104436458194],[-96.677371777255061,32.918081832028825],[-96.67753474874884,32.918052169415517],[-96.677570448505222,32.918044042335111],[-96.678599601725267,32.91804777584175],[-96.67861426617003,32.918047828289588],[-96.678738431580157,32.918046284592847],[-96.678904861523463,32.918037951141024],[-96.679070569776073,32.918022459403851],[-96.679235124056603,32.917999852629968],[-96.679398094813052,32.917970187694252],[-96.679559057106047,32.917933542374605],[-96.67971759177648,32.917890012670341],[-96.679873283305355,32.917839712748233],[-96.680025726332957,32.917782772396443],[-96.680174523357749,32.917719341484485],[-96.680319285999985,32.917649584573141],[-96.680459637014408,32.917573684580113],[-96.680595209380613,32.91749183823827],[-96.680725650424563,32.917404260718385],[-96.68085061883238,32.917311179227887],[-96.680969788803537,32.917212836730222],[-96.681082850083229,32.917109491042062],[-96.681189507052636,32.91700141029181],[-96.681289480709182,32.916888877487771],[-96.681382512070357,32.916772185182452],[-96.681468357763535,32.916651638975118],[-96.681546793430087,32.916527552176078],[-96.681617614634462,32.916400250347763],[-96.681680637153775,32.916270063179127],[-96.681735695617462,32.916137332583816],[-96.681782647039711,32.91600240375314],[-96.681821368549677,32.915865628712993],[-96.681851759596526,32.915727364572312],[-96.681873740942493,32.915587971690371],[-96.681887254662627,32.915447813676437],[-96.681892266317405,32.915307256541311],[-96.681891832733768,32.915248234308571],[-96.681881408877274,32.914728520381047],[-96.681873466969222,32.914053745372982],[-96.681870091050882,32.913952939421144],[-96.681858081074097,32.913812684127997],[-96.681837596477351,32.913673129243421],[-96.681808690752547,32.913534638484762],[-96.681771438894543,32.913397573402492],[-96.681725938535237,32.913262291601747],[-96.681672307866464,32.913129144882426],[-96.681610687652039,32.912998482904861],[-96.681541238337843,32.912870644080265],[-96.68146414083219,32.912745963723474],[-96.681379596795239,32.912624765927404],[-96.681287827407388,32.912507368050676],[-96.681189070350939,32.912394075218728],[-96.681083583963016,32.912285184044514],[-96.681030149267855,32.912235441114817],[-96.681032336693505,32.911886384923044],[-96.681042412424063,32.911857428129188],[-96.681081133297582,32.911720652933091],[-96.681111524090682,32.911582388585281],[-96.681133505566237,32.911442995445512],[-96.68114701979917,32.91130283712382],[-96.681150438876486,32.911236732932757],[-96.681150996948915,32.91122183497253],[-96.681249935554888,32.911286049620934],[-96.681387079786063,32.911366001056692],[-96.681528884569431,32.911439941085362],[-96.681674980730619,32.911507676885591],[-96.681824986738192,32.91156903158938],[-96.681978510779814,32.911623846142696],[-96.682135154102596,32.911671975775292],[-96.682294506474463,32.911713297115178],[-96.682456151826031,32.911747700199136],[-96.68261966903161,32.911775096625064],[-96.682784632102852,32.911795414135391],[-96.682950608990041,32.91180860020134],[-96.683117168036901,32.911814621282865],[-96.683229604045209,32.911814176760352],[-96.683283878813171,32.911813649906335],[-96.683693849011036,32.911807900984556],[-96.684361651823991,32.91182022184838],[-96.684504071953938,32.911830945976],[-96.684646798918934,32.911836191334785],[-96.684789622033904,32.91183595018186],[-96.685063242345038,32.911830427989734],[-96.685173048003449,32.911826790010835],[-96.685282684135487,32.911819688175562],[-96.685392041499895,32.911809129560169],[-96.685512594064349,32.91181646824117],[-96.685633325211981,32.911819749556336],[-96.685754098425107,32.911818969795291],[-96.685764334270885,32.911818746597966],[-96.686486971735945,32.911802928133625],[-96.686819603220997,32.911799663443453],[-96.686952637135676,32.911799044357267],[-96.686966910396663,32.911798952245213],[-96.687617454834481,32.911793521618108],[-96.687635603490591,32.911793326960954],[-96.687715168769103,32.911792289263275],[-96.687851824316198,32.911788116007031],[-96.687988242105789,32.911779041796244],[-96.688124246428941,32.911765078318687],[-96.688259662109232,32.911746243559605],[-96.69168764039938,32.911698591182187],[-96.6917443591731,32.911697385256105],[-96.691910776600352,32.911689035226956],[-96.692076471385988,32.911673526954146],[-96.692241011284295,32.911650903729551],[-96.692403966780248,32.911621222470892],[-96.692564912974561,32.91158456099862],[-96.692723430750064,32.911541015354238],[-96.69287910463207,32.911490699746182],[-96.692985519297636,32.911450936646546],[-96.693074432311548,32.911482673455062],[-96.69323108113268,32.911530789807841],[-96.693390438187294,32.911572097637602],[-96.693552087393456,32.911606487016357],[-96.69371560761563,32.911633869577685],[-96.693807410416682,32.911646064249041],[-96.693970446809033,32.911665718878005],[-96.694094955342791,32.911678668967269],[-96.694219818258361,32.911687575824565],[-96.694344904292478,32.911692430086482],[-96.694470081947344,32.91169322664993],[-96.694795928986196,32.911690037728327],[-96.6948687006347,32.911688640577005],[-96.695035117765997,32.911680286573969],[-96.695200812015514,32.911664774344452],[-96.695365351138918,32.911642147190683],[-96.695528305623398,32.911612462040701],[-96.695689250572059,32.91157579672501],[-96.695847766871097,32.911532247295192],[-96.696003439049704,32.911481927969525],[-96.696155861798303,32.911424968586822],[-96.69630463766849,32.911361519066176],[-96.696449378335629,32.911291744016992],[-96.696589706611846,32.911215826404145],[-96.696725255535981,32.911133963006563],[-96.696855672495346,32.91104636903961],[-96.696980616238733,32.910953271753478],[-96.697099761030032,32.910854914152893],[-96.697212796680262,32.910751554093977],[-96.697271129088065,32.91069242089236],[-96.697435525121847,32.910694802449051],[-96.697602261908713,32.91069362286882],[-96.697768677015915,32.910685265383464],[-96.697934369038862,32.910669749682029],[-96.698098905739201,32.910647119075833],[-96.69826185761022,32.91061743050188],[-96.698422799761858,32.910580761799615],[-96.698581313087843,32.910537209029457],[-96.698736982124828,32.910486886418418],[-96.698889401571734,32.910429923813865],[-96.699038173988555,32.910366471143298],[-96.699182911059708,32.910296693024307],[-96.699323235606684,32.910220772429831],[-96.699458780678142,32.910138906146628],[-96.699589193671414,32.910051309397396],[-96.699714133345665,32.909958209439814],[-96.699833273975386,32.909859849285482],[-96.69994630538234,32.909756486797065],[-96.700052932025656,32.90964839014692],[-96.70015287498191,32.909535842384891],[-96.700245875348529,32.909419136102272],[-96.700328464207502,32.909303108704123],[-96.700342006749594,32.90896960790672],[-96.69843336488519,32.908955561019695],[-96.698145028107746,32.908953437033233],[-96.697521294743339,32.908948838458116],[-96.6975132611406,32.908948779301078],[-96.697504849865155,32.908509960060478],[-96.697510797006132,32.90828853540674],[-96.697512864897817,32.908186847123773],[-96.697516165506158,32.908024697605967],[-96.697525316375078,32.907414528854517],[-96.697534093572273,32.906983045271559],[-96.697533665913369,32.906042845616973],[-96.697533019550676,32.905754180365975],[-96.69753535152573,32.905479304126018],[-96.697534593672756,32.905196135596512],[-96.697537557563294,32.905050475289286],[-96.697536057390252,32.904643586576753],[-96.697540315300671,32.90395359954023],[-96.697540021311113,32.90380791559118],[-96.697542464703091,32.90352754216395],[-96.697544222578031,32.903120700067035],[-96.697548802722068,32.902576442318683],[-96.697481035745724,32.902597455415581],[-96.69747970175186,32.902570415053844],[-96.692560849702858,32.904108282025575],[-96.692499480201477,32.903994513091931],[-96.69166696945743,32.904256520816247],[-96.691714988832715,32.902758524550592],[-96.69170743513267,32.901851208994344],[-96.691704019575653,32.900421621207158],[-96.691701037732457,32.900248384791368],[-96.691697591151524,32.899618812038803],[-96.691696740141239,32.899341114852056],[-96.691695946023088,32.899060671927337],[-96.691695518381408,32.898499108618807],[-96.691695517877662,32.898499062519413],[-96.691704330184592,32.897747602528426],[-96.691747351037378,32.895902714086581],[-96.691769833403782,32.894641175753094],[-96.691774676275557,32.8944038021612],[-96.693691180277867,32.894414974480853],[-96.693693240525349,32.894413724390958],[-96.69369618519174,32.894161893929201],[-96.693696503075913,32.89042012056489],[-96.690529410631854,32.890363172327774],[-96.690556346152945,32.889243298529323],[-96.690555898726771,32.889195027822026],[-96.69055532814798,32.889133320095688],[-96.690535653477482,32.889131855251684],[-96.690505068894709,32.889129580229955],[-96.690504949811825,32.886637573881515],[-96.690513897723761,32.88615873081482],[-96.690515499653458,32.886108971122177],[-96.690515606564787,32.886053965752275],[-96.690512138971599,32.886053924982143],[-96.690389778131291,32.886052500799316],[-96.683223252540742,32.885968878525077],[-96.683227077424064,32.885792117408926],[-96.683251937084435,32.879096260973924],[-96.683252167756876,32.879033873566385],[-96.683252391380421,32.878973938548505],[-96.683902133569674,32.878974906133486],[-96.684003044029993,32.878949926781118],[-96.684070286871517,32.878943959901434],[-96.6842125056546,32.878932721875465],[-96.684619970288196,32.878922169389099],[-96.686610505894578,32.878926439540152],[-96.687457580657224,32.878927779343272],[-96.68972435830797,32.878903301528204],[-96.68997383302171,32.878902363454237],[-96.689971459310144,32.878900630666102],[-96.689617941520567,32.878642765177226],[-96.689368895612077,32.878484124819899],[-96.689139926152421,32.878357589241062],[-96.688972743463793,32.878234885186039],[-96.688686037627576,32.878066055129203],[-96.687992993383816,32.87781606078245],[-96.687612783533112,32.877609427565233],[-96.687125075653299,32.877255484388442],[-96.686816137023243,32.876996804535302],[-96.686652506921689,32.876873459830428],[-96.686562494004377,32.876814394590944],[-96.68622928431094,32.876540148635939],[-96.685970027815287,32.876313692827694],[-96.685040009162591,32.87556390713371],[-96.684955798445799,32.875463308463758],[-96.684943933030723,32.875441407968488],[-96.684943031601264,32.875440558249984],[-96.684101930849707,32.874648981541789],[-96.684081619908184,32.874629868772431],[-96.684079704098352,32.874628304719714],[-96.683954376864605,32.874525913368544],[-96.683911014536676,32.874490488345508],[-96.683835736099553,32.874424165904834],[-96.683387157528614,32.874057486422437],[-96.683357123242359,32.874031248087256],[-96.683302604491431,32.873882052476702],[-96.683299627549829,32.873873902605759],[-96.683113461666281,32.873741312310891],[-96.682989986397587,32.873653369707924],[-96.682869622561057,32.873567643114121],[-96.682701881739035,32.873448174733987],[-96.682198910605635,32.873089939932413],[-96.681757510088829,32.872839146905939],[-96.681638235610563,32.872761855449184],[-96.681380483743666,32.872624926101857],[-96.680939613580463,32.872374426440558],[-96.680599061563839,32.872180926047527],[-96.680192416416958,32.871937983454544],[-96.680010677841267,32.871846603715902],[-96.679721772761383,32.871682445383989],[-96.679385739569312,32.871521456890903],[-96.678828980994965,32.871287648625824],[-96.678779345640066,32.871265796509952],[-96.678717948021031,32.871240132067157],[-96.678672756697964,32.871223595285883],[-96.678353965419106,32.871106942777651],[-96.677564619160179,32.870804663186526],[-96.677418738425942,32.870764715645379],[-96.677115961025649,32.870681802836145],[-96.676927134409866,32.87061634758431],[-96.673729347303819,32.870015351983746],[-96.67287152907835,32.869848313783599],[-96.672107031665178,32.869699442591227],[-96.671112637314963,32.869360196790772],[-96.67047677652441,32.868946686233471],[-96.670293804073125,32.868769312606126],[-96.669384593191097,32.867609042519859],[-96.669206067851192,32.867052294448598],[-96.669315106286604,32.866701666733555],[-96.668992410579946,32.866379346895521],[-96.66812626824273,32.867580506584879],[-96.667783324875487,32.867361432571919],[-96.663254198921663,32.864535348458638],[-96.663170064270858,32.864635296885496],[-96.663080622713821,32.864753947158462],[-96.662998477521995,32.864876295339414],[-96.662923841390096,32.865002024253705],[-96.662856908148669,32.865130805400092],[-96.662797854741285,32.865262303519572],[-96.662746833832614,32.865396173695359],[-96.662706778089927,32.865523191861342],[-96.662458152766277,32.86552174731662],[-96.662409354686673,32.865521772100266],[-96.66224282017869,32.86552649761397],[-96.662076787814314,32.865538392938269],[-96.661911692319805,32.865557427606383],[-96.661747963785416,32.865583551154273],[-96.661586028606223,32.865616696758906],[-96.661426309676756,32.865656775821499],[-96.661269225030381,32.86570368606548],[-96.661115182781941,32.865757303274357],[-96.660964585148264,32.865817488623378],[-96.66081782536898,32.865884084986348],[-96.660675285501881,32.865956918686415],[-96.66053733859583,32.86603579864753],[-96.660404344249329,32.866120520799555],[-96.660276648772765,32.866210863563509],[-96.66015458509159,32.866306590560228],[-96.660038472681322,32.866407452415636],[-96.659928613320858,32.866513185748531],[-96.659897789422587,32.866546101244275],[-96.659753834422929,32.866531313167798],[-96.659609422226481,32.866521994012771],[-96.659464760525054,32.866518157181879],[-96.659396314332312,32.866517625484342],[-96.659340046530616,32.866517598336046],[-96.659173510086433,32.866522319938078],[-96.659007475554958,32.866534211357823],[-96.658842377668094,32.866553242138757],[-96.658678646522389,32.866579361826993],[-96.658516708519642,32.866612503609545],[-96.658356986561827,32.866652578897636],[-96.658199898690171,32.86669948542454],[-96.658045853027957,32.866753098983338],[-96.65789525180088,32.866813280758969],[-96.657748488257951,32.86687987363451],[-96.657605944466781,32.866952703942104],[-96.657467993486506,32.867031580614693],[-96.657334994926231,32.867116299590634],[-96.657207295107355,32.867206639299305],[-96.657085226966501,32.867302363369397],[-96.65696910999101,32.867403222434568],[-96.65685924597166,32.867508953120819],[-96.656755922147511,32.867619279934139],[-96.656659409066279,32.86773391520569],[-96.656569956239863,32.867852560787675],[-96.656487799762687,32.867974904633563],[-96.656413152358979,32.868100629579757],[-96.656346207888689,32.868229407135473],[-96.656287143324533,32.868360902051087],[-96.656236111360414,32.868494769418156],[-96.656193245500731,32.868630662028735],[-96.656158657077142,32.868768223973419],[-96.656132437161361,32.868907097015907],[-96.656114654489429,32.86904691873233],[-96.65610535432657,32.869187324289655],[-96.656104149621555,32.869233868568308],[-96.656101711385162,32.869387542223343],[-96.656102123406015,32.869481621076375],[-96.656109839647769,32.869622094926427],[-96.6561260458936,32.86976205302016],[-96.656150699615623,32.869901130080478],[-96.656183735688415,32.870038963865561],[-96.656225068592391,32.87017519341795],[-96.656274590047204,32.870309465330038],[-96.656332172447577,32.870441427505973],[-96.656397663254012,32.870570736248141],[-96.656470892579335,32.870697053739995],[-96.656551670885747,32.870820052505984],[-96.656641592861789,32.870938565085261],[-96.656647424951998,32.870946820282342],[-96.656690313504967,32.871010501756132],[-96.656774585612567,32.871124789603336],[-96.65677842463532,32.871129859847656],[-96.65679898644504,32.871155531579767],[-96.656848148442776,32.871216170337064],[-96.656899208151231,32.871275220037163],[-96.656999786778954,32.871387360915406],[-96.657097831119614,32.87148401642618],[-96.657127117254731,32.871511572139326],[-96.657211736247845,32.871588153599042],[-96.657299121487441,32.871661562820996],[-96.657389154122299,32.87173169996256],[-96.657481711700569,32.871798469631365],[-96.657515566296823,32.871822000456589],[-96.657612673665682,32.871886882197167],[-96.657711999691941,32.871948313637432],[-96.657813421837204,32.872006218989483],[-96.657916814977085,32.872060526815552],[-96.657954470902752,32.872079506137219],[-96.657982753275746,32.872093599098122],[-96.658011043489125,32.872106728022004],[-96.657969214415814,32.872117222338979],[-96.657812117131783,32.87216412823409],[-96.657658062207602,32.872217741146351],[-96.657507451893466,32.872277922262363],[-96.657360679461803,32.872344514466995],[-96.657218127003659,32.872417344094067],[-96.65708016760064,32.872496220078339],[-96.656947160883746,32.872580938359988],[-96.656819453195837,32.872671277370138],[-96.656697377493956,32.87276700073933],[-96.656581253285225,32.872867859103025],[-96.656471382379209,32.872973589089092],[-96.656368052033031,32.873083915205356],[-96.656271532811388,32.873198549784739],[-96.656217458283621,32.873270266738359],[-96.656132238539811,32.87333054894561],[-96.656010161267517,32.873426271632425],[-96.655894035492551,32.873527129342747],[-96.655784163028528,32.873632858706294],[-96.655680831136863,32.873743184232389],[-96.655584310386089,32.87385781825553],[-96.655494850308003,32.873976462631283],[-96.65541268701638,32.874098805316116],[-96.655338033252875,32.874224529149643],[-96.655271082893933,32.874353305643801],[-96.655212012927976,32.874484799551816],[-96.655160976062902,32.874618665967802],[-96.655118105815689,32.874754557686444],[-96.655083513529746,32.874892118800567],[-96.655057290286649,32.875030991076024],[-96.655039504831151,32.875170812090992],[-96.655030202435924,32.8753112170143],[-96.655028730709191,32.875383417976693],[-96.655027403456586,32.875657981635179],[-96.655028080826412,32.875726403236527],[-96.655035795965617,32.875866876580936],[-96.655052001683984,32.876006834240783],[-96.65507665545519,32.876145910940089],[-96.655109692153616,32.876283744438034],[-96.655151026258039,32.876419973777921],[-96.655200549484988,32.876554245552526],[-96.655258134224653,32.87668620766663],[-96.655323627931296,32.876815516422582],[-96.655396860710226,32.876941834003908],[-96.655477643014834,32.877064832934721],[-96.655565761593721,32.877184189650627],[-96.655660988795944,32.877299593773458],[-96.655763075210416,32.877410744308833],[-96.655871753880959,32.877517351561153],[-96.655986742445805,32.877619137188823],[-96.656107739863288,32.877715835927873],[-96.65623443072343,32.877807194798798],[-96.65636648518371,32.877892974912598],[-96.656503558871378,32.877972954179221],[-96.656645293046125,32.878046922793914],[-96.656791318717538,32.878114687860638],[-96.656941254538282,32.878176072435224],[-96.657094708879015,32.878230917385395],[-96.657251283168563,32.878279077862061],[-96.657410567354958,32.878320430412515],[-96.657572145547391,32.878354864991827],[-96.657735596794851,32.878382293115983],[-96.657900495281055,32.878402642444875],[-96.65806640912524,32.878415860366253],[-96.658232906835096,32.878421913257355],[-96.658291056831516,32.878422334912059],[-96.659626656090168,32.878421973005558],[-96.659735153462421,32.878420419776731],[-96.659901514286517,32.8784121102792],[-96.660067155187789,32.878396642205502],[-96.660231644060119,32.878374058742565],[-96.660394551522444,32.878344416704387],[-96.660555452800565,32.878307793809093],[-96.660713928894083,32.878264285997766],[-96.660869564437547,32.878214007379725],[-96.661021954217304,32.878157087687626],[-96.661170700870144,32.87809367673718],[-96.661315416148327,32.878023939037078],[-96.661455722929489,32.87794805745493],[-96.661591254309471,32.877866228675515],[-96.661721657720307,32.877778667823925],[-96.661846591947011,32.877685602063956],[-96.661965731278173,32.877587274318046],[-96.662078765538112,32.87748394236452],[-96.662185399179421,32.877375874295872],[-96.662285353260145,32.877263353087223],[-96.662378368848493,32.877146671261031],[-96.66243210718325,32.87707120580135],[-96.662445412630561,32.877186031774606],[-96.662446742621356,32.87719353283299],[-96.662433333218488,32.877303154015749],[-96.662425842497157,32.877413337975057],[-96.662424292166534,32.877523765382293],[-96.662424197877471,32.877570786863139],[-96.662426200029188,32.878073504407197],[-96.662429196062618,32.878745452059292],[-96.662429881585581,32.8787924690088],[-96.662437608143719,32.878932941636279],[-96.662453825519592,32.879072898099651],[-96.662478491156449,32.879211973126161],[-96.662511539897707,32.879349804479318],[-96.662552886190696,32.879486031207975],[-96.662599658369032,32.879612809273809],[-96.662558275501411,32.879721372829671],[-96.66251541369968,32.879857266521917],[-96.662480830445247,32.879994829135946],[-96.662454616796481,32.880133702433533],[-96.662436841473095,32.880273523990226],[-96.662427549721045,32.880413928973425],[-96.662426066278115,32.880503522429798],[-96.662426666517248,32.880723284252156],[-96.662427382387406,32.880996967839693],[-96.66242746885149,32.881029208754718],[-96.662427914705162,32.881196876768314],[-96.66237830044787,32.883764010440515],[-96.662369069848808,32.88385124279705],[-96.662363428822616,32.88393878059923],[-96.662361386883816,32.88402647620044],[-96.662352348367662,32.88622421556537],[-96.662355085864519,32.886346859711054],[-96.662364276017215,32.886469189680618],[-96.66237989333878,32.886590866217496],[-96.662398815703298,32.886712916009522],[-96.662398987387576,32.886762645081049],[-96.662401791674057,32.886870356398134],[-96.662409760320685,32.886977809143659],[-96.662422874975263,32.887084755848541],[-96.662441105434084,32.887190950209131],[-96.662443724646707,32.88750203368253],[-96.662452340964862,32.888431960395764],[-96.662437238824381,32.888570128869226],[-96.66242904583828,32.888661788222002],[-96.662424484855023,32.888753699915512],[-96.662423563013533,32.888845720088192],[-96.662428362507441,32.889335215008302],[-96.662437585092107,32.890275954062794],[-96.662448170928215,32.891322006899593],[-96.662458827089822,32.892442071474385],[-96.662469745894143,32.894286290837954],[-96.662470413958189,32.894329914483926],[-96.662478141866814,32.894470385683739],[-96.662494362009809,32.894610340721989],[-96.662519031823209,32.894749414329574],[-96.662552086139371,32.894887244273747],[-96.662593439391216,32.895023469607118],[-96.662610841380385,32.895070631610643],[-96.662581113522265,32.89518886183312],[-96.662554895745401,32.895327733772248],[-96.662537117671889,32.895467553954504],[-96.662527824554857,32.895607957550901],[-96.662526341867363,32.895684589718513],[-96.662523998093135,32.896507968401991],[-96.662526824166633,32.896631263241886],[-96.662536472527847,32.896754212472715],[-96.662552913575638,32.896876438886324],[-96.662537344017423,32.898683206631567],[-96.66253288620868,32.899131567573633],[-96.662514965731845,32.89984735395101],[-96.662494187065647,32.899970455168415],[-96.662480425525544,32.900094536926581],[-96.662473725437565,32.900219199557377],[-96.662472254412236,32.900273128076762],[-96.662471817391733,32.900389534338302],[-96.662477494944653,32.900505802881362],[-96.662489271397888,32.900621612742178],[-96.662507114242089,32.900736644223187],[-96.662502559005119,32.900754761251065],[-96.662476339543744,32.90089363266695],[-96.662458560289423,32.901033452327532],[-96.662449266498371,32.90117385540519],[-96.662448213596207,32.901211940646583],[-96.662442666334826,32.901497211094913],[-96.660659981965523,32.901492195969418],[-96.657416725068515,32.901483001418654],[-96.65737951932833,32.90148307437768],[-96.657212920241363,32.901487793375352],[-96.657046823104579,32.901499682034697],[-96.656881662813817,32.901518709906455],[-96.656717869628196,32.901544826544168],[-96.656555870111006,32.901577965142948],[-96.656396087324964,32.901618037122191],[-96.65623893947037,32.90166494022391],[-96.656084834826416,32.901718550250102],[-96.655934175772757,32.901778728394831],[-96.655787355709407,32.901845317550709],[-96.655644756851089,32.901918144059543],[-96.655506752401081,32.901997016864193],[-96.655373702107809,32.902081731913093],[-96.655245952427407,32.902172067645843],[-96.655123441212055,32.902268113758126],[-96.654990328470234,32.902378002988698],[-96.654889545820453,32.902464613469995],[-96.65479297615677,32.902555897740406],[-96.654700836005659,32.902651651124266],[-96.654613331961826,32.902751658925361],[-96.653108183508181,32.902760341819032],[-96.652939696152217,32.902765066755897],[-96.652773596191167,32.902776949979966],[-96.65260843276134,32.902795972441055],[-96.652444636130028,32.902822083706745],[-96.652282632869486,32.90285521698614],[-96.652122846052265,32.902895283712667],[-96.651965693889096,32.902942181641947],[-96.651811584670384,32.902995786589464],[-96.651660920787933,32.903055959762526],[-96.651514095654051,32.903122544066754],[-96.651371491496974,32.903195365856554],[-96.651233481533623,32.903274234087164],[-96.651100425526806,32.90335894471891],[-96.650972669947521,32.903449276202927],[-96.650850547878036,32.90354499218936],[-96.650734378946538,32.903645843332924],[-96.650624465078906,32.903751566280299],[-96.650521093644699,32.903861885557632],[-96.650424535315949,32.903976513515801],[-96.650335039721725,32.90409515202596],[-96.650252843069453,32.904217489060166],[-96.650178158187174,32.904343207472564],[-96.650111179032308,32.904471978789196],[-96.650052082669106,32.90460346777688],[-96.650001021873976,32.904737329542634],[-96.649958130226366,32.904873216893122],[-96.649923519125409,32.905010773932638],[-96.649897279702031,32.90514964243765],[-96.649879480743337,32.905289459996212],[-96.649870167556855,32.905429861785997],[-96.649868964608388,32.905476077914834],[-96.649854760152209,32.906359385803782],[-96.649854511868824,32.906412382164113],[-96.649854564591521,32.906420113473068],[-96.649869561895443,32.908304593844889],[-96.649870189332916,32.908343172907642],[-96.649877899392379,32.908483643556423],[-96.649894103034441,32.908623598866257],[-96.649918757737908,32.90876267356736],[-96.649951798374445,32.908900505424008],[-96.649993139412942,32.909036733483902],[-96.650042672551535,32.909171004343108],[-96.650100270155264,32.909302965908843],[-96.650165779643984,32.90943227448485],[-96.65023903108218,32.909558592255166],[-96.650319834874963,32.909681591743393],[-96.650407977714352,32.909800949383673],[-96.650503231886631,32.90991635479557],[-96.650605347910073,32.910027506981159],[-96.650714058751063,32.910134116240648],[-96.650829081964275,32.91023590422725],[-96.650950116417221,32.910332605670732],[-96.651076846603686,32.910423967584649],[-96.651208942578535,32.91050975107202],[-96.651346059860799,32.910589734034055],[-96.651487839596072,32.910663706656301],[-96.651503079642808,32.910670777585828],[-96.6476344595781,32.911289292252754],[-96.647554600137639,32.911302932159252],[-96.64739258037811,32.911336059198106],[-96.6472327768996,32.911376119728104],[-96.647075607956324,32.91142301152108],[-96.646921481882487,32.911476610408478],[-96.646770801113576,32.911536777613492],[-96.646623959106307,32.911603356057228],[-96.64648133813256,32.911676172109431],[-96.646343311453492,32.911755034740274],[-96.646210238875355,32.911839739924744],[-96.646082466912404,32.911930066128107],[-96.645960328689426,32.912025777014314],[-96.645844143877085,32.912126623251389],[-96.645734214442527,32.912232341498779],[-96.645630827795813,32.912342656294967],[-96.645534254648936,32.91245728000245],[-96.645444744669348,32.912575914503442],[-96.645362534102176,32.912698247780561],[-96.645287835811757,32.912823962697637],[-96.645220843790383,32.912952730789982],[-96.645161735135943,32.913084216832679],[-96.645110662656876,32.913218075940534],[-96.64506775996324,32.913353960927012],[-96.645033138482717,32.913491515902699],[-96.645006889373619,32.913630382649352],[-96.644989081448315,32.913770198759707],[-96.64498755691443,32.913786543062727],[-96.644963605872022,32.914053515006664],[-96.644955808940736,32.914177571335877],[-96.644954999032933,32.914318190267132],[-96.644962702170318,32.914458660650794],[-96.644978899462544,32.914598616016711],[-96.645003548405242,32.914737691094757],[-96.645036583884732,32.914875523648291],[-96.645077920383784,32.915011752723132],[-96.645127449611977,32.915146024912822],[-96.645185043944778,32.915277988121012],[-96.64525055081063,32.915407298647182],[-96.645323800280721,32.915533618670288],[-96.645404602765353,32.915656620708113],[-96.645492744959967,32.915775981188027],[-96.645587999152596,32.915891389722297],[-96.645690115861413,32.916002545304863],[-96.645798828050857,32.916109158226959],[-96.645913853272475,32.916210950132289],[-96.646034890388165,32.916307655740482],[-96.646161623884822,32.916399022054129],[-96.646293723808938,32.91648481016481],[-96.64643084566913,32.916564797961698],[-96.64657263059884,32.916638775617677],[-96.646718709475834,32.916706550213277],[-96.646868700813528,32.916767944779323],[-96.647022212837683,32.916822800157554],[-96.64717884682743,32.916870971471752],[-96.64733819257421,32.916912335240788],[-96.647499834026661,32.916946781390557],[-96.647663350068839,32.916974221406839],[-96.647828314715738,32.91699458291852],[-96.647994295913279,32.917007813281593],[-96.648160861993759,32.91701387884072],[-96.648327578595072,32.917012761236002],[-96.648494009406733,32.917004466458565],[-96.648659720874406,32.916989013223365],[-96.648824280707444,32.916966444678756],[-96.648987259339904,32.916936817599698],[-96.649090381925532,32.916913366133976],[-96.649393816110347,32.916863540428459],[-96.649398694134618,32.916862737317935],[-96.649403198128667,32.916861996919465],[-96.649423108646261,32.916858728713059],[-96.651338812105493,32.916543306578099],[-96.651354390909603,32.916541019714195],[-96.651850823060101,32.916468136235089],[-96.651943394277012,32.916454545207067],[-96.651989727523016,32.916447452680437],[-96.652004629159819,32.916445047197996],[-96.652563566083117,32.916353687826394],[-96.652711640853738,32.916326461642647],[-96.652800777335997,32.916306187215525],[-96.653040975044846,32.916263758925375],[-96.6531064529117,32.916252427909697],[-96.653597228909902,32.916167429601103],[-96.653831510579806,32.916127777285993],[-96.654096900184285,32.916082862131006],[-96.654152600333745,32.916073439336287],[-96.654332377889972,32.916043722978507],[-96.654579545990742,32.916002862711849],[-96.654818699987715,32.915964177273906],[-96.654910334307758,32.915949737877007],[-96.655026505764155,32.915932572396663],[-96.655103805425298,32.915921161349942],[-96.655240768964632,32.915902238387829],[-96.655367605336224,32.915984023957144],[-96.655565164992169,32.91611141164713],[-96.655633222141901,32.916155295613677],[-96.655691227694305,32.916191845103164],[-96.655735266179434,32.916217529738326],[-96.655726599466163,32.916348296187955],[-96.655725189544881,32.916411408704036],[-96.655708148023109,32.918409759527968],[-96.655707791062071,32.918472877190759],[-96.655707783853316,32.918550380979433],[-96.655715503567478,32.918690850335658],[-96.655731717763217,32.918830803977478],[-96.655756383892026,32.918969876639359],[-96.655789436795388,32.919107706090969],[-96.655830790910514,32.919243931386234],[-96.655880337901237,32.919378199128495],[-96.655937950096529,32.91951015723297],[-96.656003474878204,32.91963946201259],[-96.656076742270713,32.919765775661261],[-96.656157562637887,32.919888770713236],[-96.656245722628057,32.920008123614366],[-96.656340994483102,32.92012352399643],[-96.656443128675036,32.92023467087477],[-96.656551858122697,32.920341274563427],[-96.656666900332638,32.920443056730072],[-96.656787954122407,32.920539752119709],[-96.656914703935314,32.920631107761679],[-96.65704681977526,32.920716884775366],[-96.65713888654237,32.920770576879576],[-96.657152161278503,32.920885143583128],[-96.65717683007388,32.921024215787739],[-96.657209885810104,32.921162044692664],[-96.657251242916658,32.921298269353315],[-96.657257111875225,32.921314714034111],[-96.657227399561748,32.921575845794983],[-96.657216263990094,32.921669739268296],[-96.65721076220197,32.921715758279966],[-96.657201458430151,32.921856159065946],[-96.657200666955148,32.921996777356526],[-96.65720838920808,32.92213724630345],[-96.657224606248818,32.922277199440224],[-96.657249275521437,32.922416271502605],[-96.657282331859221,32.922554100261877],[-96.657323689690401,32.922690324773711],[-96.657373240669159,32.92282459164359],[-96.657430857114065,32.922956548788839],[-96.657496386395778,32.923085852525084],[-96.657569658527052,32.923212165048817],[-96.657650483859413,32.923335158897316],[-96.657738649028133,32.92345451051947],[-96.657833926261674,32.92356990955053],[-96.657936066017982,32.923681055009254],[-96.65804480120137,32.923787657213396],[-96.658159849303431,32.923889437834539],[-96.658280909126319,32.923986131621731],[-96.658407665097712,32.924077485608464],[-96.658539787205271,32.92416326091849],[-96.658676930899986,32.924243235474243],[-96.658818737258301,32.924317199483333],[-96.658964837101834,32.924384960061772],[-96.659114848889558,32.924446340276987],[-96.659268380793634,32.92450118100826],[-96.659425034041533,32.924549337417382],[-96.659584398374463,32.924590686062253],[-96.659746057692288,32.924625116908288],[-96.659909590832655,32.924652541481137],[-96.660074571765918,32.924672887449894],[-96.660240568395409,32.924686102211226],[-96.660407149013395,32.924692152150442],[-96.660573879219513,32.924691018948408],[-96.660738996005662,32.924682803091919],[-96.661456393154793,32.924631941148732],[-96.661569667778565,32.924621387329324],[-96.661627972621574,32.924636514026119]]],[[[-96.622798198693644,32.930109803020827],[-96.622778699754221,32.930171531018587],[-96.622774647414047,32.930184601751215],[-96.622736958709353,32.930271722691401],[-96.6227029559372,32.930360347226198],[-96.622672698898782,32.930450319490298],[-96.622463105301065,32.931117467131948],[-96.620783083755455,32.936358828593114],[-96.620451414494639,32.93728716698002],[-96.620409578834455,32.937401752362717],[-96.620378978866185,32.937489962702799],[-96.620353429124592,32.937579766003743],[-96.620323159392171,32.937694646481674],[-96.620066668185174,32.938627008995411],[-96.620038219747428,32.938742238213713],[-96.620011926220542,32.938881097609659],[-96.619994075912501,32.939020907965585],[-96.619984714264177,32.93916130447785],[-96.619983866407878,32.939301920912968],[-96.619991533921706,32.939442390427416],[-96.620007698008678,32.939582346553586],[-96.620032316250771,32.939721424019304],[-96.620065323614355,32.939859260581507],[-96.620106634655812,32.939995495275824],[-96.620156141150758,32.940129774680884],[-96.620213715534831,32.940261746681998],[-96.620279205287559,32.940391067555126],[-96.620352440525409,32.940517399452496],[-96.620433231695614,32.940640414861157],[-96.620521365523146,32.940759790173146],[-96.620616614318294,32.94087521496251],[-96.620718728612985,32.940986388180548],[-96.620827441377841,32.941093020072415],[-96.620942470163001,32.941194832232547],[-96.621063513821042,32.941291559327432],[-96.62119025682199,32.941382948303811],[-96.621322369187752,32.941468760194226],[-96.621459506394089,32.94154877282584],[-96.621601309534654,32.941622776306495],[-96.62174740943955,32.941690577649617],[-96.621897424567635,32.941751999816056],[-96.622050963081946,32.941806883575481],[-96.622207626193571,32.941855083978041],[-96.622367003616915,32.941896477466443],[-96.622528679218505,32.941930953888914],[-96.622692231793081,32.941958424652384],[-96.622848980849241,32.941977968991296],[-96.623077366480615,32.942001686177925],[-96.623085620896248,32.942002534477908],[-96.62325164317582,32.942015796005478],[-96.623418252400427,32.942021892959289],[-96.623585014096335,32.942020806897524],[-96.623751491833943,32.942012543728687],[-96.623917251937684,32.941997122085567],[-96.624081861989012,32.94197458503384],[-96.624244892291671,32.94194498926651],[-96.624405917750707,32.941908412380968],[-96.624564519042167,32.941864950198479],[-96.624720280472417,32.941814716708713],[-96.62487279650037,32.941757841526908],[-96.625021669433281,32.941694474352673],[-96.625166510693873,32.941624779580444],[-96.625306942831187,32.941548939965863],[-96.625442598613958,32.941467152083952],[-96.625573125149543,32.941379630953492],[-96.625698180901551,32.941286603634239],[-96.625817439841541,32.941188312948441],[-96.625930591482017,32.941085016577908],[-96.626037339969074,32.940976982522074],[-96.62613740606055,32.940864493667036],[-96.626230530533832,32.940747842451501],[-96.626316469772519,32.9406273343672],[-96.626394999174479,32.94050328262486],[-96.626465914058599,32.940376012695445],[-96.626524347082935,32.940255510053561],[-96.626562237650276,32.940239381746139],[-96.626707075492405,32.94016968520112],[-96.626847504178471,32.940093843859714],[-96.626983156486219,32.940012054301384],[-96.627113679532044,32.939924531549288],[-96.627238731788694,32.939831502667452],[-96.627311009342307,32.939773135581291],[-96.627809311009173,32.939358205924485],[-96.629243664148547,32.938175224159203],[-96.630270507310215,32.93734003011069],[-96.632148244623565,32.935844766697109],[-96.632246582672252,32.935763152187548],[-96.632341326054771,32.935677390940697],[-96.632432300051903,32.935587641111518],[-96.632519336895697,32.93549406821046],[-96.632594855733302,32.935409083210061],[-96.632643192883179,32.935353239012208],[-96.632715951641458,32.935263203775349],[-96.63278479840217,32.935174277807675],[-96.632840911710645,32.935099178571271],[-96.632894400475934,32.93502218798298],[-96.63295628826522,32.934929698646812],[-96.633031479511075,32.934810598374824],[-96.633054016972878,32.934771938128058],[-96.63310868871983,32.934676268306305],[-96.633157052627112,32.934587654517678],[-96.633194130124522,32.934513498797543],[-96.633241355982207,32.934415049241053],[-96.633267381045911,32.934359042707392],[-96.633314136086057,32.934247984074929],[-96.633353718979834,32.934147168122976],[-96.633385226335491,32.934062358083651],[-96.633413562217456,32.933976436409885],[-96.633445334828096,32.933873674490052],[-96.633479705359576,32.933751087277614],[-96.633491951029555,32.933700101956035],[-96.633515784389246,32.933595820901566],[-96.633534007377094,32.933508554958379],[-96.633549011851883,32.933420029636117],[-96.633564803272606,32.933314670507919],[-96.633571856691205,32.93326381272184],[-96.633584487463523,32.933137440014939],[-96.633592171959876,32.933031438514732],[-96.633597771155038,32.932919183935041],[-96.633596948230561,32.932806792812421],[-96.633605655480451,32.932785835201415],[-96.633652685073329,32.932650925146902],[-96.633691484237104,32.932514165876228],[-96.633721952218096,32.932375914457424],[-96.633744009578209,32.932236531216503],[-96.633757598194023,32.932096379737402],[-96.633762683430618,32.931955826014196],[-96.63376267251212,32.931926747029905],[-96.633758670801512,32.931550823078489],[-96.633758130033058,32.931541720203633],[-96.633759761129923,32.931489499289185],[-96.633760454698333,32.93145072232403],[-96.633778283702981,32.931055284350442],[-96.633780357093755,32.930969898001202],[-96.63377692573772,32.930829308485428],[-96.633764986058026,32.930689050363256],[-96.633744569860355,32.930549489526747],[-96.633729952928064,32.93047929338838],[-96.633734798019773,32.930358111328154],[-96.633737992383686,32.930121020950445],[-96.633741668279754,32.92988593277591],[-96.633754555961687,32.929061399816973],[-96.633754776778801,32.929042175690441],[-96.633755068903852,32.92900249913518],[-96.633804376666319,32.928984104279373],[-96.633953223085882,32.928920726405416],[-96.634098037779268,32.928851021154628],[-96.634238443364879,32.928775171310043],[-96.6343740726807,32.928693373473337],[-96.634504572903083,32.928605842689208],[-96.634629602564559,32.928512806042725],[-96.634748835704528,32.928414506380406],[-96.634861961902857,32.928311201407467],[-96.634968685372002,32.928203159145781],[-96.635068726935188,32.928090662502996],[-96.635161827433635,32.927974003937912],[-96.635247743313599,32.927853488961631],[-96.635326250033799,32.927729430802671],[-96.635397142972451,32.927602154948964],[-96.635460237720878,32.927471991021818],[-96.635515368718615,32.927339280873866],[-96.635562392791272,32.927204369643363],[-96.635601186878588,32.927067609310122],[-96.635631650240128,32.926929356944896],[-96.635653703449563,32.926789972876243],[-96.635667288394643,32.926649820690209],[-96.635672370449825,32.926509266382773],[-96.635672371809349,32.926508991705852],[-96.635801649517944,32.926525353242958],[-96.635931409766513,32.926537299109484],[-96.636061501775657,32.926544815424521],[-96.636191774380492,32.926547893454234],[-96.639321704246356,32.926569467889507],[-96.639457359532841,32.926568023183222],[-96.639623808220335,32.926559739740611],[-96.639789538172195,32.926544297836919],[-96.639954117049314,32.926521740590864],[-96.640117115236123,32.926492124747966],[-96.640278107721784,32.926455527958076],[-96.640436675268205,32.926412046094278],[-96.640592402270215,32.926361793197785],[-96.640744883276255,32.926304898934418],[-96.640893720684943,32.926241513053533],[-96.641038526011826,32.926171799998301],[-96.641178921899623,32.926095942572189],[-96.641314541211514,32.926014137396692],[-96.641445031150297,32.925926599535643],[-96.64157005027495,32.925833556092442],[-96.64168927265267,32.925735249931527],[-96.641802387891204,32.925631938774998],[-96.6419091002318,32.925523890660834],[-96.642009130526603,32.925411388511975],[-96.642102219646148,32.925294724801589],[-96.642188124066493,32.925174205054141],[-96.642266619276214,32.925050142510713],[-96.642337500683695,32.92492286267057],[-96.642400583910074,32.924792695165451],[-96.642455703425142,32.924659981857353],[-96.64250271608455,32.924525067892759],[-96.642541498857639,32.924388305258617],[-96.642571951033446,32.924250051031692],[-96.642593993215101,32.9241106655453],[-96.642607567318834,32.923970512389346],[-96.642612638747494,32.923829957562205],[-96.642612675613904,32.923819314328547],[-96.642612855915544,32.923669371471149],[-96.642670401878149,32.921036231031437],[-96.642670917405709,32.920998927663518],[-96.642667472989032,32.920858337448763],[-96.642655521191799,32.920718079207909],[-96.642635093851297,32.920578518833196],[-96.642606244310215,32.920440020056354],[-96.6425690474167,32.920302944448693],[-96.642523600659203,32.92016764964287],[-96.642470022090421,32.920034487472627],[-96.642408452337108,32.919903807638846],[-96.642339051714643,32.919775948599167],[-96.642262001003502,32.919651245721148],[-96.642177501742353,32.919530023156646],[-96.642085774994342,32.919412598328961],[-96.641987058330898,32.919299276433485],[-96.641881609983329,32.91919035415907],[-96.641769705826519,32.919086114188907],[-96.641651637075086,32.918986829659801],[-96.641527711516787,32.918892759675927],[-96.641398253545162,32.918804148405897],[-96.641263599747234,32.918721228584602],[-96.641124102343497,32.918644215275897],[-96.640980124742939,32.918573310277097],[-96.640832042776907,32.918508697632518],[-96.640680242427919,32.918450547189849],[-96.64052511895548,32.918399009156047],[-96.64036707887378,32.918354218666472],[-96.640206533627776,32.918316292911641],[-96.640043901734188,32.918285331192358],[-96.639879607809277,32.918261412183931],[-96.639714080167806,32.918244601103481],[-96.639547750144274,32.918234938849203],[-96.639437530652074,32.918232491382859],[-96.639399817217992,32.918232191218486],[-96.637191649028424,32.918214580167941],[-96.637101765790831,32.918213471337943],[-96.637094729712672,32.918213386241383],[-96.636302956091555,32.91820362059179],[-96.636204426369389,32.918202981641713],[-96.636105934766633,32.918205795641065],[-96.636007602253855,32.918212059133594],[-96.635363126055182,32.918206820306672],[-96.635298591579812,32.918206295370709],[-96.634934044802009,32.918203329497103],[-96.634789420080153,32.918192440337791],[-96.634644471828238,32.918187451527011],[-96.634475651423671,32.918184921834722],[-96.63431878786146,32.918182572151387],[-96.634173102721235,32.918180388816523],[-96.634012174287733,32.91817797845318],[-96.633855320382651,32.91817562846213],[-96.633841446729022,32.918175420555158],[-96.633842933438856,32.917997660412958],[-96.633843898152719,32.917881394646777],[-96.633845141967925,32.917732622253112],[-96.633845246547381,32.917720164332607],[-96.633845288393644,32.917714327745287],[-96.63384185742818,32.917573736992367],[-96.633829919350958,32.917433477640387],[-96.633809505963171,32.917293915584416],[-96.633780670571412,32.917155414560618],[-96.633743487986862,32.917018336146057],[-96.633698055660531,32.916883037980895],[-96.633644491607541,32.916749871907456],[-96.63358293641673,32.916619187636904],[-96.63351355036562,32.916491323638525],[-96.633436514196532,32.916366615292631],[-96.633352029410275,32.916245386765539],[-96.633260317032097,32.91612795549603],[-96.633161614596176,32.916014626696196],[-96.633082760905054,32.915933158634211],[-96.633035934138434,32.915846865181287],[-96.632958899142537,32.915722156500976],[-96.632874415563194,32.915600927613781],[-96.632782704422397,32.915483495959371],[-96.632684003251342,32.915370166750932],[-96.632578570240497,32.915261236696402],[-96.632466681224969,32.915156988499348],[-96.632348627379756,32.915057695317998],[-96.632224716453777,32.914963616279017],[-96.632095272802474,32.914874995574756],[-96.631960632975364,32.914792065964612],[-96.63182114915665,32.91471504253812],[-96.631677184719734,32.914644127118883],[-96.631529115461802,32.914579503778398],[-96.631464848361034,32.914554878488765],[-96.631447829030819,32.914465534299538],[-96.631426849652414,32.914377036234967],[-96.631401951813871,32.914289559727344],[-96.631373184870881,32.914203278183891],[-96.631485636404406,32.91412968954203],[-96.631594771630063,32.914051266725693],[-96.631700382877113,32.913968158963741],[-96.631992302762484,32.913728209568859],[-96.632054787187627,32.913675438526006],[-96.632167898464004,32.913572134871373],[-96.632274608162263,32.913464093749951],[-96.632374637141382,32.913351598066328],[-96.632467726275252,32.913234940276908],[-96.632553632039816,32.913114425890655],[-96.632632129920296,32.912990368134729],[-96.632703015317887,32.912863092495883],[-96.632766103843551,32.912732928594835],[-96.632821229953052,32.91260021828429],[-96.632868250484918,32.912465306702785],[-96.63290704238797,32.912328545831166],[-96.632937504927327,32.912190292741585],[-96.632959558679119,32.912050907764417],[-96.632973145529434,32.911910754488119],[-96.632978230847769,32.911770198911483],[-96.632974801410853,32.911629607582867],[-96.632962865402192,32.911489347600039],[-96.63294245461779,32.911349784859944],[-96.632913622357222,32.911211283100386],[-96.632876443423527,32.911074203900434],[-96.632831015258347,32.910938904902153],[-96.632777455865792,32.910805737950199],[-96.63271590582255,32.910675052757988],[-96.632646525392715,32.910547187797114],[-96.632569495303997,32.910422478450535],[-96.632485017041276,32.910301248887059],[-96.632393311612773,32.910183816548255],[-96.632294616534594,32.910070486648969],[-96.632189189981602,32.909961555899031],[-96.632077307771709,32.909857307003783],[-96.63195926106242,32.909758013123223],[-96.631835357583995,32.909663933385971],[-96.631705921672335,32.909575311986075],[-96.631571289856979,32.909492381684849],[-96.631431814300868,32.909415357573479],[-96.631287858356274,32.909344441477472],[-96.631139797797829,32.909279817470086],[-96.631125002380301,32.909273798402559],[-96.630469605546892,32.909008971808831],[-96.630395177072202,32.908973483982741],[-96.630260989854094,32.908914574196203],[-96.630057544003023,32.908830254316477],[-96.629941143879947,32.908784340718498],[-96.629823141557111,32.908742717420495],[-96.62970369510694,32.908705440179816],[-96.628763692997936,32.908290557829019],[-96.628663714789283,32.908247557176153],[-96.628562130869085,32.908208500736123],[-96.628459096769959,32.908173448307274],[-96.628339096382533,32.908109182813995],[-96.628216516605349,32.908049985306995],[-96.628091571357515,32.907995959094336],[-96.626908982108418,32.907510939928109],[-96.626756382911424,32.907452434432813],[-96.626721139008083,32.907440719372943],[-96.626685682647022,32.907423250571732],[-96.626539280330675,32.907359299163758],[-96.625166226515319,32.906796138185577],[-96.625013629617925,32.906737629727203],[-96.624858534336781,32.90668607272206],[-96.62470052167798,32.906641262964143],[-96.624540003014815,32.906603317694156],[-96.624413114905991,32.906579141914023],[-96.624352282033868,32.906558919188328],[-96.62419426983449,32.906514108815237],[-96.624033751596983,32.90647616292096],[-96.623871145767367,32.906445180858839],[-96.62370687689446,32.906421241357066],[-96.623541373227155,32.906404409686481],[-96.623375066037966,32.906394726798773],[-96.623208390268061,32.906392221091068],[-96.623041780672054,32.906396896558569],[-96.622875670421166,32.90640874179531],[-96.622710494445329,32.906427726465722],[-96.622546683044774,32.90645380023593],[-96.622384662829859,32.90648689641263],[-96.622224856918038,32.906526926526084],[-96.622067683569185,32.906573788427771],[-96.621913551129552,32.906627358026803],[-96.621762862050943,32.906687496622837],[-96.62161600981176,32.906754047211635],[-96.621473376710554,32.90682683623551],[-96.621335336040374,32.906905672735391],[-96.62120224764351,32.906990352754327],[-96.62107445807564,32.907080654823169],[-96.620952300507696,32.907176342668741],[-96.620836094660575,32.907277167019437],[-96.620726142556492,32.907382864591533],[-96.620622731664469,32.907493159977555],[-96.62052613275965,32.907607765590924],[-96.62043659557655,32.907726383360583],[-96.620354356431775,32.907848701313206],[-96.620279628263759,32.907974402352501],[-96.620212605142925,32.908103158049563],[-96.620153464247934,32.908234633212551],[-96.620102358471897,32.908368482984145],[-96.620059421511201,32.9085043602024],[-96.620024764883311,32.908641908997929],[-96.619998479837975,32.908780771168921],[-96.619980635281351,32.908920584320001],[-96.619971276639689,32.909060983640188],[-96.619969753082515,32.909150984320213],[-96.619971161550552,32.909725305832879],[-96.619971346733593,32.909800498791107],[-96.619971356572378,32.90980409204284],[-96.619262813847541,32.9098113622372],[-96.619034817706037,32.909813737598796],[-96.619042334729698,32.909736310125453],[-96.619047440962291,32.909595754889551],[-96.61904403264387,32.909455162995002],[-96.619032117902918,32.909314901541038],[-96.619011728479663,32.909175336428461],[-96.618982917618254,32.909036831401323],[-96.618945760065898,32.908899748047176],[-96.618900353208204,32.908764444018949],[-96.618846814994086,32.90863127117435],[-96.618785285944554,32.908500579242315],[-96.618715926269346,32.90837270671188],[-96.618638916641714,32.908247988985842],[-96.618554458493378,32.908126750254809],[-96.618462772779864,32.908009307984472],[-96.618364096966161,32.9078959674153],[-96.618258689176471,32.90778702528506],[-96.618146825180276,32.907682764328811],[-96.618028796087174,32.907583457738042],[-96.617904909581512,32.907489364674419],[-96.617775489955065,32.907400729366941],[-96.61764087369481,32.907317784612999],[-96.617612538992304,32.907301430064884],[-96.617503233589375,32.907239050343911],[-96.617407100103591,32.907186250482376],[-96.617309328254137,32.907136550000253],[-96.61721001793353,32.907089999676018],[-96.617162622418689,32.907068681567857],[-96.617043262798532,32.907002167346199],[-96.617017974257465,32.906988073821587],[-96.616969261237855,32.906961448625211],[-96.616693423546167,32.906813604398913],[-96.616660836217306,32.906796364273227],[-96.616555250243238,32.906744333007467],[-96.616539010647031,32.906723529636572],[-96.61644033853824,32.906610187520471],[-96.616334934455537,32.906501243747982],[-96.616223074158768,32.906396981058556],[-96.616105048747855,32.906297672648165],[-96.615981165897566,32.906203577683215],[-96.615851749890098,32.906114940397643],[-96.615717137203006,32.906031993594048],[-96.615577679949538,32.905954952406894],[-96.615433741433819,32.905884018706075],[-96.615336315467573,32.905840572800642],[-96.614926896262816,32.905665390748069],[-96.614876278369223,32.90564419439734],[-96.614849306757392,32.90563327394544],[-96.613934433789979,32.905267172106925],[-96.613173332279047,32.904958539621035],[-96.613135125651766,32.904932370222902],[-96.613000517094903,32.904849420559579],[-96.612861063860962,32.904772376416723],[-96.612717129243478,32.904701439671904],[-96.612569088961976,32.904636794452252],[-96.612540110673152,32.904625070574873],[-96.61239286566753,32.904566248250184],[-96.612270084035302,32.904519788225819],[-96.61211499950717,32.904468216038978],[-96.611956996747224,32.904423390825045],[-96.611796487103078,32.904385429864952],[-96.611727742790791,32.904372324997652],[-96.610892631705312,32.904033659691521],[-96.610861269136464,32.904021113651353],[-96.608983327044214,32.903280154627289],[-96.608956742891948,32.903259959469196],[-96.608827337664223,32.903171315063631],[-96.608692735491829,32.903088360872054],[-96.608553288460669,32.903011312048221],[-96.608409359848153,32.902940370481986],[-96.608261325358072,32.90287572031302],[-96.608230009385437,32.902863061861837],[-96.607994338471826,32.902769096045688],[-96.607873900172137,32.902723565451019],[-96.607718821071359,32.9026719879921],[-96.607560823476604,32.902627157415964],[-96.607400318721844,32.90258919101759],[-96.607237725218098,32.902558188203649],[-96.607104281665414,32.902538722292675],[-96.605507245456778,32.901908532781349],[-96.605398667855354,32.901867703160157],[-96.605290937287265,32.901831055069451],[-96.605083739872128,32.901764160618519],[-96.605036394203637,32.901749228211578],[-96.604976671587906,32.901731388165203],[-96.604766832888401,32.901670632913778],[-96.604668560891923,32.901643638958618],[-96.604658458055496,32.901641028012435],[-96.604446234504735,32.901586487281342],[-96.60433668247444,32.901560085814765],[-96.604122330798774,32.901511826801638],[-96.604081483996367,32.90150286893072],[-96.604011797948445,32.901488677238291],[-96.603795581687621,32.901446756476005],[-96.603702677314985,32.901429941053671],[-96.603684095679043,32.901426863142959],[-96.603466277365797,32.901391335333052],[-96.603354131962774,32.901374749230683],[-96.603134976893884,32.901345651979369],[-96.603101449222493,32.901341350790048],[-96.603022128348314,32.901332367449136],[-96.602801902789906,32.901309741101151],[-96.602715732794749,32.901301866504546],[-96.602688586693773,32.901299788658292],[-96.602467559545332,32.901283660074242],[-96.602353916867031,32.901277050608073],[-96.602132357323001,32.901267438525778],[-96.602106850243828,32.90126641616741],[-96.602018544145366,32.901264179704889],[-96.601796720659209,32.901261093808827],[-96.601718360747455,32.901260797327531],[-96.601682769052218,32.901261186466328],[-96.601460955493692,32.901264634776659],[-96.60134715139759,32.901268080017545],[-96.601125613668259,32.90127805408418],[-96.601108407951699,32.901278867569957],[-96.601011968885018,32.901284850409766],[-96.600790979341113,32.901301341049006],[-96.600721314474868,32.901307175520529],[-96.600677670847787,32.901311481313627],[-96.600457497927991,32.901334469302199],[-96.60037290269787,32.901344251359788],[-96.600263206392285,32.901358171279554],[-96.600226273734393,32.901363039957168],[-96.600193595635503,32.901367654136486],[-96.600032358466322,32.901391129711953],[-96.599901227712266,32.901412561075617],[-96.599739208223681,32.901445629318005],[-96.599579401231736,32.901485631903185],[-96.599422224998492,32.901532466754901],[-96.599268087878187,32.901586009852394],[-96.599117392334776,32.9016461225646],[-96.598970531863216,32.901712647954852],[-96.598827888783902,32.901785412531041],[-96.598689836415815,32.901864225398086],[-96.598556734631444,32.901948882660655],[-96.598428930021484,32.902039162908814],[-96.598306755796486,32.902134829926332],[-96.598190531720448,32.902235634496144],[-96.598080559863249,32.902341313385854],[-96.597977127745509,32.902451591236911],[-96.597880506197455,32.902566180508558],[-96.59779094501252,32.902684783172091],[-96.597708680570648,32.902807087294086],[-96.597633925875627,32.902932775813888],[-96.597566875067187,32.903061520335257],[-96.59750770539614,32.903192985695839],[-96.597456569831152,32.903326827063601],[-96.597413602145565,32.903462697298664],[-96.597378913937661,32.903600240549821],[-96.597353918429803,32.903732125880623],[-96.597352184291324,32.903739005669607],[-96.597330838616841,32.903805105815259],[-96.597296150159011,32.903942649013452],[-96.597269832540277,32.904081507045483],[-96.597251954751684,32.904221317526755],[-96.597242562306491,32.904361715653188],[-96.597241093785996,32.904466196209015],[-96.597242243509342,32.904602348381644],[-96.596958650122687,32.904957876915461],[-96.596871665558496,32.905073242944248],[-96.596804101757371,32.905172585940036],[-96.596776722363586,32.905214857056095],[-96.596762018391189,32.905237817408093],[-96.596749749289515,32.90525738273211],[-96.596723251947566,32.905300051814564],[-96.596697344626833,32.905342668468101],[-96.596671730970286,32.905385720197991],[-96.596646597856576,32.905428901001358],[-96.596621880122029,32.905472323046453],[-96.596610431629315,32.905492648015901],[-96.596606671348368,32.905499418133921],[-96.596600696278955,32.905510214348332],[-96.596537402477267,32.905632188006422],[-96.59647822971867,32.905763652678772],[-96.596427091261674,32.905897493417605],[-96.596384120887194,32.906033363084539],[-96.596349430200505,32.906170905829832],[-96.596323110539799,32.906309763467561],[-96.596305230901564,32.906449573614253],[-96.596295836803833,32.906589971466545],[-96.596294953463016,32.906730590787646],[-96.596302582550294,32.90687106472636],[-96.596316433979339,32.906995069269392],[-96.596430305884567,32.907815342211286],[-96.596432577312953,32.907831299734966],[-96.596457151938139,32.907970384566674],[-96.596490113137534,32.908108229980051],[-96.596531375588029,32.908244474987612],[-96.596580831191702,32.908378766141112],[-96.596638352516862,32.908510751295474],[-96.596703787182093,32.908640086691875],[-96.596776965447376,32.908766434444871],[-96.596846446217683,32.908872319750976],[-96.596768177479589,32.909073547496341],[-96.59673833527394,32.909154453536168],[-96.596695363850458,32.909290323013487],[-96.596660672409868,32.909427865545823],[-96.596634352292597,32.909566722947851],[-96.596616472496336,32.909706532836658],[-96.59660707853925,32.909846930409664],[-96.596606195637747,32.909987549430653],[-96.596613825461503,32.910128023049388],[-96.596629949311406,32.910267984787559],[-96.596654524874793,32.910407069358556],[-96.596687487229104,32.910544914500477],[-96.596728751048602,32.910681159226655],[-96.596778208231484,32.910815450089565],[-96.596835731341997,32.910947434944795],[-96.596901167994275,32.91107677003442],[-96.596974348442885,32.91120311747369],[-96.597055083277041,32.91132614970951],[-96.597143159370219,32.911445543089435],[-96.597238349182319,32.911560987140781],[-96.597340403399485,32.91167218076442],[-96.597449055149099,32.911778834152159],[-96.597564022140446,32.911880668842549],[-96.597685003387298,32.91197741944319],[-96.59781168352275,32.912068832839388],[-96.597943732732631,32.912154670000135],[-96.598080806657009,32.912234708686753],[-96.598222546555277,32.912308738938819],[-96.598368583422342,32.912376567700079],[-96.598518535881638,32.912438017859756],[-96.598672012259527,32.912492930114496],[-96.598828613929285,32.912541159440323],[-96.598987930765489,32.912582582204124],[-96.599149546793413,32.912617088177832],[-96.599268828346723,32.912637872568737],[-96.599370622943241,32.912653945908644],[-96.600269736541918,32.912799788843969],[-96.600254898020353,32.916291639542607],[-96.600254878882708,32.916298439180615],[-96.600254280990328,32.916750767672703],[-96.600254950413529,32.916809660217652],[-96.600262586302662,32.91695013298969],[-96.600278716820398,32.917090093646621],[-96.60030329963665,32.917229176904534],[-96.600336269809915,32.91736702050509],[-96.60037754199405,32.917503263465569],[-96.600427008065466,32.917637552343109],[-96.600484540565333,32.917769534998342],[-96.600549987083042,32.917898867679206],[-96.600623177847538,32.918025212507267],[-96.600703923421321,32.918148241936095],[-96.600792010649528,32.918267632320685],[-96.600887211963226,32.918383073196104],[-96.60098927801846,32.918494263471587],[-96.601097941911732,32.918600913347632],[-96.601212921320723,32.918702744371991],[-96.601333915226689,32.918799491161707],[-96.601460608229672,32.918890900612197],[-96.601592670482077,32.91897673370265],[-96.601729757590022,32.919056768204989],[-96.601871510778153,32.919130794169838],[-96.602017561007059,32.919198618551974],[-96.60216752686496,32.919260064252164],[-96.602321016643614,32.919314971978601],[-96.60247763168114,32.919363196719168],[-96.602636961817282,32.919404614852745],[-96.602798591042486,32.919439116163289],[-96.602962098272073,32.919466611992902],[-96.603127057544413,32.919487029825085],[-96.603293036819196,32.919500316868238],[-96.603459604433297,32.919506439319704],[-96.603626326022038,32.919505378671282],[-96.603792765260195,32.919497140764825],[-96.603958488572928,32.919481744167342],[-96.604123063637346,32.919459231879316],[-96.604286060848665,32.919429660528913],[-96.604447055198392,32.919393107650016],[-96.604605627443391,32.919349669001292],[-96.604761361966126,32.9192994585107],[-96.604913853295869,32.919242605733729],[-96.605062703803796,32.919179260311452],[-96.605207524971661,32.919109586581641],[-96.605347939400374,32.919033767244983],[-96.605483579905368,32.918951998823566],[-96.605614093633378,32.918864496285586],[-96.605739139081891,32.918771486642058],[-96.605808055730435,32.918714692675806],[-96.60591558225245,32.918649985027599],[-96.606020453115264,32.918581056551574],[-96.606122502726507,32.918508016086619],[-96.606221569948602,32.91843097896453],[-96.606361596977649,32.918317460957901],[-96.606439699245499,32.918251970382506],[-96.606444948452634,32.918247407478269],[-96.606585958614914,32.918124542777782],[-96.606742350147258,32.918123688285988],[-96.606950237859337,32.918122549991331],[-96.607159765259539,32.918121399675272],[-96.607185904475472,32.918121256215393],[-96.607259792163106,32.918147685562168],[-96.607416407795156,32.918195904428821],[-96.607575738130635,32.918237316580878],[-96.607737367159345,32.918271811817696],[-96.607900873797163,32.918299301497335],[-96.608065832084009,32.918319713119239],[-96.608231809982144,32.918332993908123],[-96.608398375832081,32.918339110077603],[-96.608565095273605,32.918338043135734],[-96.608731531987289,32.918329798941045],[-96.608897252404674,32.918314396076774],[-96.609061824210613,32.91829187755981],[-96.609224817808695,32.918262300034591],[-96.609385808199889,32.918225741051018],[-96.609544376151391,32.918182296383776],[-96.609700106056906,32.91813207997653],[-96.609786705383556,32.918099788892505],[-96.60984828158054,32.918099499702549],[-96.610055083672904,32.918098537993011],[-96.610267930622541,32.918097548251517],[-96.610440058948512,32.918096750127042],[-96.610477763332796,32.91809721474219],[-96.610633650372222,32.918095996424185],[-96.610800086469865,32.918087749597042],[-96.610965806114024,32.918072344110563],[-96.611130376991582,32.918049822988337],[-96.611293369508587,32.918020242881703],[-96.61145435866861,32.917983681347309],[-96.611612925242383,32.917940234166338],[-96.611768653626925,32.917890015289231],[-96.611921138367649,32.917833154293184],[-96.612069535658577,32.917769990802519],[-96.612216295555385,32.917830110198075],[-96.612369788902939,32.917885006189152],[-96.612526406739875,32.917933218948043],[-96.612685738898904,32.917974624885019],[-96.612847369364957,32.91800911381592],[-96.613010877050243,32.918036597115041],[-96.613175835991882,32.918057002298504],[-96.613341814150473,32.918070276607928],[-96.613508379865863,32.918076386273711],[-96.613675098778089,32.918075312820953],[-96.613841534569232,32.918067062125168],[-96.613953612937024,32.918056640574036],[-96.614048122894374,32.918072525400923],[-96.614213082127051,32.918092929276277],[-96.614379060497598,32.918106202269698],[-96.614545626345432,32.918112310614994],[-96.614621622157031,32.918112711362802],[-96.615272541766302,32.918109756272017],[-96.615542756387498,32.918108730500236],[-96.615871742393296,32.918107495917454],[-96.615922570849591,32.918107302648018],[-96.616133273004721,32.918106503618468],[-96.616449089746425,32.918105310972415],[-96.616561818306408,32.918104874173082],[-96.616833175351317,32.918103866249673],[-96.617333025503939,32.918101963851683],[-96.617426653659535,32.918100473914933],[-96.617433023982798,32.918100157892049],[-96.617486391629953,32.918100495967536],[-96.617854902958456,32.918099613349881],[-96.617992584050398,32.918099281888288],[-96.618479275122155,32.918098140077248],[-96.618790255167852,32.918097421303429],[-96.619167818161486,32.918096524064666],[-96.619232291698779,32.918096370406325],[-96.619760363635493,32.918095113119186],[-96.619786965336189,32.918095064942044],[-96.619813481699495,32.918095006421382],[-96.620115699471313,32.918094291222843],[-96.62042013373231,32.918093788925447],[-96.620455398654471,32.918093569531116],[-96.620466839366486,32.918093446709854],[-96.620759098628284,32.918092751975678],[-96.621076183734175,32.918091993002221],[-96.621108275743083,32.918091933655731],[-96.621547201877505,32.918090875926517],[-96.621562096630214,32.9180908467359],[-96.621663032493231,32.918089332855693],[-96.621716503350683,32.918086678929399],[-96.621757459503158,32.918086934195969],[-96.622142425696538,32.918085944853054],[-96.622246021952748,32.918085667661771],[-96.622826290799409,32.91808419150783],[-96.622854945112209,32.918084118888572],[-96.622916126116209,32.918158274496093],[-96.622969385038417,32.918217731658018],[-96.623005336421244,32.918256758324205],[-96.623065439670469,32.918347095398246],[-96.623129220625003,32.918434874537873],[-96.623196570564005,32.918519946114976],[-96.623267374682939,32.918602165116774],[-96.62351377808622,32.918878016530172],[-96.623576702536113,32.918949063877129],[-96.623583913595439,32.918957173339251],[-96.623632721135394,32.919011860502565],[-96.623675176582253,32.919059481500284],[-96.623727138602931,32.919119274417596],[-96.623762798813701,32.919159493386829],[-96.623812462392038,32.919214452879714],[-96.62388795794368,32.919298002288414],[-96.623934751588948,32.9193504441469],[-96.62396235795218,32.919381393243604],[-96.624029213677545,32.919456351641045],[-96.624081039181235,32.919514426615613],[-96.624095496286898,32.919530631013771],[-96.624129426839573,32.919568683421986],[-96.624209462948571,32.919654822214639],[-96.624318154798672,32.919761452723371],[-96.624433161041026,32.91986326326348],[-96.624554180586983,32.919959988505695],[-96.624680897969426,32.920051375401577],[-96.624812983277081,32.920137184989052],[-96.624950092056309,32.920217195101365],[-96.625091865474886,32.920291195852819],[-96.625158173652238,32.920321972893916],[-96.625154530034322,32.920376676160807],[-96.625153839820754,32.920398543283049],[-96.625140856916886,32.920932439798754],[-96.625138841966987,32.920969148843625],[-96.625137627382188,32.920994572803316],[-96.625137349135585,32.921000974405693],[-96.625136001106299,32.921041421940487],[-96.62512972957235,32.921138300934182],[-96.625122358710499,32.9212755642844],[-96.62511297270963,32.921450161081964],[-96.625099942730472,32.921630605433108],[-96.625094393332219,32.921745504023157],[-96.625094761273544,32.921860535959745],[-96.625101045580351,32.921975396698485],[-96.625113229615053,32.922089782148234],[-96.6251038837556,32.922114259827524],[-96.625060947755287,32.922250137450632],[-96.625026293400381,32.922387686319247],[-96.625000011934887,32.922526548231197],[-96.624988422823904,32.92260926780785],[-96.624968861140829,32.922769673774638],[-96.624949188689897,32.922913280494321],[-96.62492741710723,32.923056977627638],[-96.624903633930217,32.923199828527231],[-96.624877699071902,32.923342711552365],[-96.624849642339697,32.923485513609698],[-96.624843093351828,32.923516504715643],[-96.624818491904094,32.923632931257771],[-96.624812837338069,32.923658405085277],[-96.624767443727293,32.92384221257263],[-96.624716265569106,32.924039947116405],[-96.624662804869843,32.924237329036842],[-96.624605955701014,32.924438408924324],[-96.624596313531896,32.924471546813997],[-96.622798198693644,32.930109803020827]]]]},"properties":{"OBJECTID":1,"Shape_Length":45287.915373635238,"Shape_Area":25090502.794455729,"AREA_SQFT":271006531.84344536,"AREA_ACRES":6221.4538990689935,"AREA_SQMILES":9.7210217172953026}}]
}