{
  "type" : "FeatureCollection",
  "features" : [{"type":"Feature","id":1,"geometry":{"type":"MultiPolygon","coordinates":[[[[-97.044279295352013,32.691641018051513],[-97.044151246741023,32.697343485830707],[-97.044151247056618,32.698299587270149],[-97.044222612559466,32.705964112008132],[-97.048583745285185,32.706002425555702],[-97.048626626830441,32.691718008440134],[-97.044279295352013,32.691641018051513]]],[[[-96.934696411709083,32.754301596405369],[-96.93469981642761,32.755138495215334],[-96.934711363939783,32.755283194136105],[-96.932785668710324,32.756245629657272],[-96.933021496218061,32.756491765996877],[-96.933035502491308,32.756506281919236],[-96.933144356906652,32.756612666559519],[-96.933259498678808,32.75671421584493],[-96.933380626368134,32.756810665130452],[-96.93350742422254,32.756901762086663],[-96.933639562117463,32.756987268506336],[-96.933776695467358,32.757066963013386],[-96.933918465374191,32.757140636547994],[-96.934064502753415,32.757208096982538],[-96.93421442622703,32.757269168168179],[-96.934367844201589,32.757323691791385],[-96.934524358193102,32.75737152383735],[-96.934683558315399,32.757412541713691],[-96.934845028890976,32.757446636249178],[-96.935008349252783,32.757473719845763],[-96.935173093922913,32.757493721060762],[-96.935338831425497,32.757506588193792],[-96.935505130729027,32.757512288534251],[-96.935671558159257,32.757510804674396],[-96.935837678172035,32.757502143564167],[-96.936003058013782,32.757486324872545],[-96.936167266267859,32.757463392701489],[-96.936329874279565,32.757433404775014],[-96.936490458056639,32.75739643971324],[-96.936648599427627,32.757352594348255],[-96.936803883904432,32.757301983674189],[-96.936955907184284,32.757244738288179],[-96.937104272863976,32.757181008855362],[-96.937207788659592,32.757131611587049],[-96.938755011418365,32.756361481838987],[-96.938795815766255,32.756340830474372],[-96.938935713222762,32.756264645611211],[-96.939070823827905,32.756182523244981],[-96.939200796115045,32.756094679264891],[-96.939325289991658,32.756001341575299],[-96.939443980895334,32.755902753807689],[-96.9395565598236,32.755799174417604],[-96.93966273241314,32.755690872144271],[-96.939762220929396,32.755578130575557],[-96.939854767649578,32.755461242804891],[-96.93994013046995,32.75534051494305],[-96.940018086289072,32.755216260774887],[-96.940088431928146,32.755088806299341],[-96.940150984397363,32.754958481602323],[-96.94020557956047,32.754825628958486],[-96.940252075636195,32.754690593876099],[-96.940290350942405,32.754553728659069],[-96.940320306092289,32.754415390650735],[-96.940341862984127,32.754275940402955],[-96.940354964801315,32.754135741675753],[-96.940359578178374,32.753995160584729],[-96.94035569112269,32.753854563744611],[-96.940343313013983,32.753714318269466],[-96.940322476800105,32.753574790016678],[-96.940293236889445,32.753436342634089],[-96.940255669149707,32.753299337559802],[-96.940226027245203,32.75321182594827],[-96.940258669243306,32.753095101888533],[-96.940288623971611,32.752956763764068],[-96.940310180573732,32.75281731339706],[-96.940323282233635,32.752677114548021],[-96.940327895586307,32.752536533332709],[-96.940324008639166,32.75239593636622],[-96.940311630771632,32.752255690762979],[-96.940290794931116,32.752116162380709],[-96.940272663487221,32.752030312112396],[-96.940437752470331,32.751802012065411],[-96.940578370416034,32.751812841906158],[-96.940719295600232,32.751818390289522],[-96.940860329727172,32.751818649408378],[-96.940883114109525,32.751818273211704],[-96.941518357332271,32.751807734937898],[-96.941572130401681,32.751806466900227],[-96.941614376089106,32.751804944194497],[-96.941719595477892,32.751800573259885],[-96.941756301024171,32.751798872849108],[-96.941939034861846,32.751789534212165],[-96.941985304042134,32.751786891067177],[-96.942167911069049,32.751775352282365],[-96.942211576475614,32.751772342633949],[-96.942383878915209,32.75175935942282],[-96.942468185138111,32.751753576394627],[-96.942488411067444,32.751752136013522],[-96.942521289929957,32.751749564092869],[-96.942658349643466,32.751738251238962],[-96.942719210813863,32.751732739620543],[-96.942856015647806,32.751719250844381],[-96.9429177656788,32.75171265654604],[-96.943054219206559,32.751696964287355],[-96.943064097599006,32.751695814731846],[-96.943114735333481,32.751689515039807],[-96.943155532321583,32.751684162443517],[-96.943250262237981,32.751671748615031],[-96.943425395358091,32.751642825842289],[-96.943599627076438,32.751608892895767],[-96.943666656520989,32.751596299361303],[-96.943761187522455,32.751576833573935],[-96.94381404065615,32.751565518507064],[-96.943905829494327,32.751545176018858],[-96.943960695388299,32.75153258320131],[-96.944052050395072,32.751510890292749],[-96.944106638903648,32.751497492968717],[-96.944197829676241,32.751474380944948],[-96.944251888497348,32.751460241890612],[-96.944342290695403,32.751435867841622],[-96.944396335315687,32.751420855436201],[-96.944486221742295,32.751395150742425],[-96.944538227401978,32.751379863739636],[-96.944629247329829,32.751352331112258],[-96.944682605545296,32.751335744575066],[-96.944771375047893,32.751307405517011],[-96.944824365153352,32.751290041273357],[-96.944912534572154,32.751260398521062],[-96.944958095076643,32.751244743663868],[-96.944965218243169,32.751242234519331],[-96.94505276275909,32.75121129472344],[-96.945105083834434,32.751192347724476],[-96.945191975334012,32.751160120169779],[-96.945243726960086,32.75114046937793],[-96.945329941456549,32.751106967964461],[-96.945370753794734,32.751090819623201],[-96.945383643230329,32.75108559874873],[-96.946190863600734,32.750802520909929],[-96.94716799399977,32.750476524155289],[-96.947221588494941,32.750458178125996],[-96.947373594223748,32.750400920375071],[-96.947521941896582,32.750337178841903],[-96.947666244303946,32.750267118898009],[-96.947806125403076,32.75019092425093],[-96.947941219397819,32.750108792403914],[-96.948071174865092,32.750020939270712],[-96.948195651756166,32.749927592779777],[-96.948314325552928,32.749828996585514],[-96.948426887297586,32.749725409165315],[-96.948533042671684,32.749617099279455],[-96.948632513985444,32.749504350535737],[-96.948725043561026,32.749387456046179],[-96.948810389339471,32.749266721939094],[-96.948888328263735,32.749142462015669],[-96.948958657199242,32.749015002289909],[-96.948981845306633,32.748966675557675],[-96.949247888878361,32.748965796344642],[-96.949288876799628,32.748965442796013],[-96.949772589045836,32.748958699162351],[-96.949808716409635,32.748958025860354],[-96.951115292368897,32.748927549258411],[-96.952312494197244,32.748910728670978],[-96.952605008615109,32.748906186077953],[-96.952754227702172,32.748937674823225],[-96.952917538362044,32.748964736166222],[-96.953082271840188,32.748984714895549],[-96.953247996690237,32.748997559369755],[-96.953414281913609,32.749003236937234],[-96.953553554718539,32.749002467012275],[-96.95497063450324,32.748969020381992],[-96.954997773636322,32.748968283324821],[-96.955115973480645,32.748962102433552],[-96.955132770670986,32.748962675793038],[-96.955272039126825,32.748961903935729],[-96.955674382741392,32.748952404151275],[-96.955719259284351,32.748953935776548],[-96.955813589005942,32.748953961770731],[-96.956259512333219,32.748948632816223],[-96.956358408126476,32.748947450904446],[-96.956556325913709,32.748945086183333],[-96.956754243720368,32.748942720259301],[-96.95688082160305,32.748939248110503],[-96.957007199883634,32.748931339482304],[-96.95713322311407,32.748919004102483],[-96.957537709403894,32.748909268379556],[-96.957723337983211,32.748904800028647],[-96.957748773304957,32.748904103128716],[-96.957914875934051,32.748895413893877],[-96.958080236766094,32.748879567165282],[-96.958244424434582,32.748856607117915],[-96.95840701033822,32.748826591548713],[-96.958567570542542,32.748789599149823],[-96.958725686937356,32.748745726824531],[-96.958880945100361,32.748695089637536],[-96.959032940796732,32.748637818255119],[-96.959181277695762,32.748574063410125],[-96.959325568615895,32.748503990508787],[-96.959465437544523,32.74842778329235],[-96.959600518717039,32.748345639297007],[-96.959730460744041,32.748257774468129],[-96.959854923611715,32.748164416764702],[-96.959973582838629,32.74806580987044],[-96.96008612950493,32.747962212290503],[-96.960192269331543,32.747853892811797],[-96.960291724669361,32.747741135067237],[-96.960384237882039,32.747624232192095],[-96.960469566953464,32.747503490336662],[-96.960543244668955,32.747386405497622],[-96.96070905763554,32.747106863948027],[-96.96071330181114,32.747099681766187],[-96.960783613045592,32.746972215514482],[-96.960846131151811,32.746841880262046],[-96.960900692083598,32.746709018311201],[-96.960947154148784,32.746573975194394],[-96.960978426588284,32.746462046261989],[-96.960919181262938,32.746463765967924],[-96.960457049191319,32.746475114127001],[-96.960105057128075,32.746483713234468],[-96.958826179834389,32.74651399514844],[-96.958413261371291,32.746523643023181],[-96.958291758543851,32.746526479447645],[-96.958087872474962,32.746531242465046],[-96.958106124388365,32.745545643716355],[-96.958143368359018,32.744018035970207],[-96.958189566704192,32.742122960537763],[-96.958246092642298,32.73874472913031],[-96.953403652041004,32.738715059895426],[-96.953379586626383,32.738744733043795],[-96.953364694972251,32.73876309642052],[-96.953244201578698,32.738911667853486],[-96.951462537859626,32.738888106395216],[-96.951461290571771,32.73888808992119],[-96.951457251592245,32.738888036271938],[-96.951454621687361,32.738805533913656],[-96.951425392295334,32.737963953829407],[-96.950373746931561,32.737836765954036],[-96.948683717749418,32.736705162015475],[-96.948679416366787,32.736702281722032],[-96.948679352210362,32.736708457861134],[-96.948657906623239,32.738770658546777],[-96.944728039471229,32.738752583613611],[-96.943092968833753,32.738745026297991],[-96.943088913722974,32.738745008159633],[-96.942913786083523,32.742239441354251],[-96.942913777667641,32.742239600206702],[-96.942813105240788,32.74224018434807],[-96.942689300474825,32.742240903574576],[-96.938289461522643,32.742170580766938],[-96.938265346735434,32.742190182921398],[-96.937110511459679,32.743128922575707],[-96.937071558180278,32.743128152408985],[-96.935019651677337,32.743087492938812],[-96.935025688220506,32.742837411465537],[-96.93204043300041,32.742660423403386],[-96.931286375012107,32.74261570735063],[-96.931111003199945,32.742605405690256],[-96.931107647787385,32.742605208433396],[-96.931102716260412,32.742611540359526],[-96.930418665946277,32.743489947658418],[-96.929745987278096,32.744417505657118],[-96.929523793466799,32.744492358280333],[-96.92952183088191,32.744493018811674],[-96.928263230283761,32.744477110371307],[-96.92807842649357,32.744474772977391],[-96.928075414354041,32.744474735541502],[-96.927327121530354,32.744848759141789],[-96.927054857617549,32.745573816912639],[-96.926948468772579,32.745703047651268],[-96.926900794802521,32.745772365606783],[-96.926669654852063,32.746108442750355],[-96.926604115506336,32.74645674798348],[-96.926718902209217,32.7469550822982],[-96.926349830168391,32.747286193092314],[-96.926344337241815,32.7474774475073],[-96.926327242059557,32.748068997011657],[-96.926279770542877,32.749504110187132],[-96.926269981063086,32.749827440503225],[-96.926261067194133,32.750060238042934],[-96.926110885758717,32.752001195964304],[-96.926171085491291,32.75201118375783],[-96.926335818615982,32.752031196186351],[-96.92650154519113,32.752044074576212],[-96.926667834213404,32.752049786187676],[-96.926834252035675,32.752048313583501],[-96.927000363138646,32.752039663684151],[-96.927165734792197,32.752023856129462],[-96.927329935600795,32.752000934992324],[-96.927492536929378,32.751970957967956],[-96.927636261323187,32.751937882430596],[-96.927700702829199,32.751948572990727],[-96.927865436171601,32.751968583490715],[-96.928031162846679,32.751981459940126],[-96.928197451850977,32.751987169604227],[-96.92836564764545,32.75198564018585],[-96.929560131273249,32.751948156724175],[-96.930645670252787,32.751914081112098],[-96.930680099274682,32.750153734947354],[-96.930945813966943,32.750151361584216],[-96.9316970176111,32.750120523084846],[-96.932394378153461,32.750068381409029],[-96.932361633331197,32.752168240674976],[-96.932587215332163,32.752105336340534],[-96.932834330194552,32.75003956477893],[-96.932971534861522,32.750037859069927],[-96.932695375670747,32.752075086045835],[-96.932809467253023,32.752046743507613],[-96.933513134737211,32.751853098029549],[-96.934742477392717,32.751520142889341],[-96.934696411709083,32.754301596405369]]],[[[-96.926449695870019,32.772810925996602],[-96.926451432559261,32.772829235603652],[-96.926466831976825,32.7729915495866],[-96.926442386635131,32.773190358864056],[-96.9264371249741,32.773233147940616],[-96.926294547620969,32.77391430588284],[-96.926223796243391,32.774372828917336],[-96.926221782835725,32.774385877607919],[-96.926158847927624,32.774589831834135],[-96.926091449681252,32.774949785572673],[-96.926109835117344,32.775346626554928],[-96.926190392720187,32.775582460653645],[-96.92620635395204,32.775668246295794],[-96.926212709643153,32.775702415646208],[-96.926303265971384,32.775907472596195],[-96.926314035536222,32.775934983609297],[-96.926356774159132,32.776044170198865],[-96.926375180671897,32.776153223332066],[-96.926367733853994,32.776196810362329],[-96.926314658918145,32.776507541596636],[-96.926314260260156,32.776508472036781],[-96.926243936341479,32.776672734466374],[-96.926172348728471,32.776886597835215],[-96.926161672045893,32.777011027482466],[-96.926143196552857,32.777192630713571],[-96.926176349590079,32.777616861132884],[-96.926203446128511,32.777809065162415],[-96.926264899180836,32.777880003062243],[-96.92626720069326,32.77788478705714],[-96.926310666972014,32.777975079444126],[-96.926406006447664,32.77814237104117],[-96.9264148232661,32.778213732920378],[-96.926438613732785,32.778406235845765],[-96.926420660364684,32.778549272498182],[-96.926395191545382,32.778752178691065],[-96.926343760440759,32.778863668234202],[-96.926294719881298,32.778969972702626],[-96.926281650869669,32.77901474309752],[-96.926251412505934,32.779118330780079],[-96.926228531741273,32.779357151033572],[-96.926229036853883,32.779540063712837],[-96.926229306399847,32.779637541168064],[-96.926230358763206,32.780018664812268],[-96.926211707431946,32.780441085199193],[-96.926196364821834,32.780788536942616],[-96.926207418118793,32.780888198348592],[-96.926253395705942,32.781204478626115],[-96.926259856230871,32.781413600382955],[-96.926220239176061,32.781640756756168],[-96.92610522898309,32.782008705722177],[-96.926103064490945,32.782012284833414],[-96.92606563970655,32.78207411619735],[-96.926111490158618,32.782101738806816],[-96.92610791765857,32.782119563702679],[-96.926753341822803,32.781967368905121],[-96.92735525571095,32.781760557853367],[-96.928063932536972,32.781573648960318],[-96.92869695415078,32.781401586673496],[-96.929339742356589,32.781213839112212],[-96.930115156481378,32.780948496956512],[-96.930825102432536,32.780673848443392],[-96.931409668515144,32.780572865926466],[-96.931955147190465,32.780397163430266],[-96.932647437416819,32.78023109851015],[-96.933634538255902,32.780047667173569],[-96.934186719631953,32.779829658350124],[-96.935103365814612,32.779565834409475],[-96.935805503855349,32.779378800170214],[-96.936417560659024,32.77914824760451],[-96.937375096100752,32.778871634818458],[-96.93898757626566,32.778453415724933],[-96.939815831940265,32.778171725715971],[-96.940432336188621,32.77804177863684],[-96.941116959631287,32.777955062502095],[-96.941439209708847,32.777810883816642],[-96.941642439690312,32.777665212363203],[-96.942462063784603,32.777194628925663],[-96.942655031383197,32.776860976189838],[-96.942541753257672,32.775960622682085],[-96.94249711094804,32.77549135270862],[-96.94243736851891,32.774955458264174],[-96.942363603535185,32.774476886908303],[-96.94232638739372,32.77423480280239],[-96.942325957026952,32.77423200941481],[-96.942325636330281,32.774229916230134],[-96.942324393704013,32.774228699711998],[-96.942319762078242,32.774224165991626],[-96.942010798351888,32.77392174383882],[-96.942148490623836,32.773631613805712],[-96.942278307482837,32.773357649371945],[-96.942921724616184,32.773299043439238],[-96.943132631368499,32.77313238883049],[-96.944077142748569,32.773206982470555],[-96.944366357746006,32.773786066078181],[-96.944272954266538,32.774086832401281],[-96.944207024961898,32.774367325950919],[-96.944170262947964,32.774592746214815],[-96.944135546357543,32.7747632086907],[-96.944107089951757,32.774901449898444],[-96.944149457547198,32.775052489597265],[-96.944186718151371,32.775185369776288],[-96.944145528039755,32.77529206495926],[-96.944085799773504,32.775446085413918],[-96.944058621288008,32.775516169922582],[-96.944064286374129,32.775610625001079],[-96.944074283881349,32.775782793266295],[-96.944079312738523,32.775867160216457],[-96.944319400738664,32.776155377261851],[-96.944534512028099,32.776414185978865],[-96.944878558284756,32.776619627610692],[-96.945017415177873,32.776680697005084],[-96.945114524420376,32.776725439127375],[-96.94559908405806,32.776912933531626],[-96.946599011807294,32.777046386547681],[-96.947370938247602,32.776572197041865],[-96.947621242128676,32.775951521556109],[-96.948161111898386,32.77542632083982],[-96.948779018580268,32.775198760343379],[-96.949593003695966,32.775047406170003],[-96.950595731904343,32.775019584817812],[-96.950954301066133,32.774983733396716],[-96.951459533843718,32.774748112391201],[-96.952132116475781,32.774494411366256],[-96.95273395203013,32.774565588465727],[-96.953097372617208,32.774655789804207],[-96.953330679792742,32.774961083694976],[-96.95354417042401,32.775423285276702],[-96.953565787428701,32.776299123285476],[-96.953026447023873,32.776758502039861],[-96.952812399480635,32.776940813549544],[-96.951775981470206,32.777219767409981],[-96.950953540644832,32.77785463211476],[-96.95049927731641,32.778291795368062],[-96.950580433098494,32.778769077604061],[-96.951099091521897,32.779086179314653],[-96.951525736485635,32.779252770699671],[-96.952245368502545,32.779039973740069],[-96.952825998713962,32.778882715389123],[-96.95297644880074,32.778860444598671],[-96.953072956199733,32.778846157064109],[-96.953106991370561,32.77884111877205],[-96.953456480820634,32.778789380645975],[-96.954102213670296,32.778693784229574],[-96.955051583310023,32.778275131441831],[-96.955480333035695,32.777666507996983],[-96.955864359862531,32.777230585309717],[-96.956102774386437,32.77695994754022],[-96.95624337499622,32.776453578904224],[-96.956306161672046,32.776086676153511],[-96.956428456797141,32.775525558261137],[-96.956853118221446,32.774823412297764],[-96.9568829336324,32.774481069675161],[-96.95660470593856,32.77401394651168],[-96.956373146049771,32.77360765084314],[-96.956235957178322,32.773263463733983],[-96.956336299604871,32.772982246810315],[-96.956627492743394,32.772703628345475],[-96.956895527840729,32.772384400880711],[-96.957166612598655,32.772092474203262],[-96.957253758776432,32.772055297922307],[-96.957297505480369,32.772034535959172],[-96.957329726465915,32.772021649340246],[-96.957953646982574,32.771913471532322],[-96.958643741834621,32.772023054820863],[-96.958897417541223,32.772530188038907],[-96.958979666779982,32.772749305678005],[-96.959034260429277,32.772894754651475],[-96.959031111960314,32.773076153560794],[-96.959175708962817,32.773201947641809],[-96.959272117803735,32.773285823468044],[-96.959301125056669,32.773311059650361],[-96.959333105040344,32.773338881755151],[-96.959454242454669,32.773444268462455],[-96.959743102592498,32.773442823888068],[-96.959780923777245,32.772404190725823],[-96.960139383651892,32.772403687765753],[-96.960111688452514,32.773440980631321],[-96.960101757911104,32.775837676709585],[-96.960168725468847,32.775835244783991],[-96.960199021658383,32.776166313642818],[-96.960199654172698,32.776172207625429],[-96.960212862210327,32.7761709417492],[-96.960377097413399,32.776147979405756],[-96.960539730221271,32.776117961684882],[-96.960700336577176,32.776080967284216],[-96.960858498250971,32.776037093112443],[-96.961013800701366,32.775986454238975],[-96.961165839578513,32.775929181334519],[-96.961314218438901,32.775865425135834],[-96.961458549991406,32.775795351052722],[-96.96159845811772,32.775719142829523],[-96.961733576950692,32.775636998004991],[-96.96186355500285,32.775549132526677],[-96.96198805216612,32.775455774355315],[-96.962106743869612,32.775357167175692],[-96.962219321109202,32.77525356949387],[-96.962325489525512,32.775145250096877],[-96.962424971394881,32.77503249261747],[-96.962517509012187,32.774915590190226],[-96.962602860297523,32.774794848964227],[-96.96268080217915,32.774670582759327],[-96.962751131515191,32.774543117605788],[-96.962813665357942,32.774412783617301],[-96.962868239619951,32.774279923092834],[-96.962914712574403,32.77414488156122],[-96.962952962599601,32.774008011343135],[-96.962982890374676,32.773869669795012],[-96.963004417869314,32.773730217477848],[-96.96301748834351,32.773590018157236],[-96.963022068513808,32.773449437950113],[-96.963021830842379,32.773410342436975],[-96.963020088070792,32.773289894409167],[-96.963016403709261,32.773188395433493],[-96.963003988949225,32.773048153775605],[-96.962983114504965,32.772908630798945],[-96.962953834884175,32.772770190137535],[-96.962916226058468,32.772633193212073],[-96.962870793575476,32.772499196141617],[-96.962888902387448,32.772390674896897],[-96.962901772370117,32.772281408464849],[-96.962926967390075,32.772012737093647],[-96.962932561300889,32.771941307414345],[-96.962935883315183,32.771871978343874],[-96.962944391895022,32.771614008699324],[-96.962968922529356,32.771512523218355],[-96.962988730322024,32.771410011237514],[-96.963003772828614,32.771306692420914],[-96.963014017815837,32.771202788161595],[-96.963027117015912,32.771033329373829],[-96.963040608963254,32.770889077632006],[-96.963072409688934,32.770743082820154],[-96.963087048306235,32.770670432897262],[-96.963097091966233,32.770612125803886],[-96.963107228106395,32.770548517218906],[-96.963118711030063,32.77046737169843],[-96.963124415277377,32.770416745192939],[-96.963171398756018,32.769954542255057],[-96.963173753586943,32.76993009579796],[-96.963195627164112,32.769689823248513],[-96.963199562565947,32.769640892440961],[-96.963216366978656,32.769400329372608],[-96.963217442228014,32.769384133487058],[-96.963219272321865,32.769351333035324],[-96.963231000841603,32.769110556104735],[-96.963232870183859,32.769061545608942],[-96.96323952148505,32.768820629790412],[-96.963240058345804,32.768796729332479],[-96.963279141745105,32.766541219828085],[-96.963279485060411,32.766506350580897],[-96.963276964238887,32.766365848636859],[-96.963280098445722,32.766347351955034],[-96.963284334522669,32.766241641267399],[-96.963303767072404,32.765120165395317],[-96.963304110402689,32.76508529521459],[-96.963304116093653,32.765078980479743],[-96.963304103956489,32.765048455929048],[-96.963303825341768,32.764334619867931],[-96.963303719144477,32.76431318858954],[-96.963301107739852,32.764041273943818],[-96.963299917816158,32.763985933313755],[-96.963290837799448,32.763714118509228],[-96.963288332777964,32.763658830424198],[-96.963272726505295,32.763386129112611],[-96.96327200238116,32.763374113290297],[-96.963262842401008,32.763228443099969],[-96.963253906930092,32.763123381444977],[-96.963240179891756,32.763018837854027],[-96.963221689964769,32.762915030741596],[-96.963198475778668,32.762812176983502],[-96.963189581939858,32.762675218018487],[-96.963178134257262,32.762550664936349],[-96.963157261902339,32.762411141085302],[-96.963127985319119,32.762272699567731],[-96.963090380471243,32.762135701806628],[-96.963044545910762,32.762000505230404],[-96.963017861204705,32.761931924675331],[-96.962960041698707,32.761789640126935],[-96.962932781274233,32.761725176851563],[-96.962870867175752,32.761594635153735],[-96.96280114523158,32.761466933704206],[-96.962723797067042,32.761342407459971],[-96.962639024991631,32.761221380110861],[-96.962547050783044,32.761104168569361],[-96.962448112657128,32.760991077478465],[-96.962342469425238,32.760882402923357],[-96.962230397463884,32.760778426938806],[-96.962112188430837,32.7606794219748],[-96.961988150480281,32.760585646406696],[-96.961957841716824,32.760564150404065],[-96.961813315200942,32.760462903533899],[-96.961714081988063,32.760396096648059],[-96.961579372651656,32.760313498445939],[-96.961439848248119,32.760236819187362],[-96.961295872260706,32.760166259799547],[-96.961147820512892,32.76010200342445],[-96.960996078913226,32.760044218981221],[-96.960841042564056,32.75999305572369],[-96.960683117751373,32.759948647805032],[-96.960522715622062,32.759911111419797],[-96.960360254321103,32.759880544853779],[-96.960196158012067,32.759857025750335],[-96.960030854504311,32.759840618284343],[-96.959864774538346,32.759831362301888],[-96.959733093907559,32.759829125208427],[-96.959553990995943,32.759829140983875],[-96.959488909756274,32.759829145620031],[-96.959312789619673,32.759829162740481],[-96.959166361973544,32.759814380410781],[-96.959019474154005,32.759805240318187],[-96.958872343490128,32.759801755986018],[-96.957038194419908,32.759793319566754],[-96.956985432227015,32.759793437422573],[-96.95681910205974,32.759798538391692],[-96.956653296114524,32.759810808492468],[-96.956488448526997,32.759830216276953],[-96.956324988738928,32.759856710308952],[-96.9561633424494,32.759890222800763],[-96.956003931792182,32.759930664195302],[-96.955847174002216,32.759977931267883],[-96.955841557835953,32.759979903201014],[-96.953423265842744,32.759966567375962],[-96.953089023058794,32.759908158352964],[-96.953056070038258,32.759902549348389],[-96.952891975533063,32.759879021068777],[-96.952726673271826,32.759862604359085],[-96.952560593992075,32.759853339089382],[-96.952420140059289,32.759851104950208],[-96.951881971958812,32.759852344861699],[-96.951856003947995,32.759852492369376],[-96.951834153077044,32.759852751340219],[-96.951296066208869,32.759860661690041],[-96.951248230027289,32.759861662170891],[-96.950710337546184,32.759876245605255],[-96.950662557940589,32.759877837295249],[-96.950124977630793,32.75989908572646],[-96.950077198900217,32.759901270940333],[-96.949539501891906,32.759929213214733],[-96.949492325005309,32.759931961711452],[-96.948955713310809,32.759966531934786],[-96.948908044470627,32.759969899494855],[-96.948372090526291,32.760011119318627],[-96.94832448676722,32.76001507829011],[-96.947789306251522,32.760062938681529],[-96.947765406326965,32.760065151632354],[-96.947741774004271,32.760067488312174],[-96.947207481557513,32.760121979312316],[-96.947160034792731,32.760127117218836],[-96.946626745115054,32.760188227065029],[-96.946579398872331,32.760193950889416],[-96.946047228891388,32.760261665161686],[-96.946000385988498,32.760267921068724],[-96.945469031399853,32.760342285984571],[-96.945421903268169,32.760349182048401],[-96.944892311653007,32.760430063451935],[-96.944845302208748,32.760437544959693],[-96.944317173717849,32.760524983754216],[-96.944270295922792,32.760533046492526],[-96.943743742264118,32.760627024528851],[-96.943726519410944,32.76063013945933],[-96.942231684086977,32.760904061393177],[-96.939779107890516,32.761353441340937],[-96.939659062439176,32.761377527899825],[-96.936022166926989,32.762168967290421],[-96.935916821056054,32.762188727834598],[-96.935766558320921,32.76222009578629],[-96.935667247326521,32.762244390534093],[-96.93553062043641,32.762279808591003],[-96.934770716101895,32.762443114670134],[-96.934299934076435,32.762506882575217],[-96.932756772148352,32.762715892802994],[-96.930755814841277,32.762983758215292],[-96.930464980312109,32.763009855129546],[-96.930446209385053,32.762983038147638],[-96.930382397283978,32.762900306225049],[-96.930352324073382,32.762863369804585],[-96.930253423130253,32.762750254454396],[-96.930147815429905,32.762641553982291],[-96.930035777257018,32.762537550490912],[-96.929917600180545,32.762438516501845],[-96.92979359227138,32.762344710466024],[-96.929664078131992,32.762256375861],[-96.929529394502808,32.76217374470243],[-96.929389893676316,32.762097031299007],[-96.929245939073951,32.762026436666666],[-96.929097906463682,32.761962144039487],[-96.928946181703949,32.761904322431107],[-96.92879115985329,32.761853121192139],[-96.928633247160079,32.761808674575313],[-96.928472854739169,32.761771098875883],[-96.928310400710231,32.761740492482176],[-96.928146309218533,32.761716933141408],[-96.927981008059945,32.761700485133503],[-96.927814927969834,32.761691188410126],[-96.927648503305278,32.761689070358777],[-96.927482168157923,32.761694133963246],[-96.927316354987894,32.761706366808468],[-96.927151497949552,32.761725737544111],[-96.926988026509534,32.761752194830457],[-96.926826366396881,32.761785670975527],[-96.926666939782095,32.761826076517131],[-96.926510163941131,32.761873308324525],[-96.926356446179739,32.76192724134539],[-96.926206187871287,32.761987735930667],[-96.926059781369275,32.762054634146644],[-96.925917607811385,32.762127761530614],[-96.92580934337515,32.76219006296531],[-96.92587728916773,32.762181195139739],[-96.926034502521532,32.762211510391118],[-96.926147493738895,32.762233300209296],[-96.926399741865794,32.762342444557952],[-96.926674798752146,32.762503423660121],[-96.926811339618112,32.762639740491309],[-96.927109193886821,32.763044413473388],[-96.927350004545033,32.763320930610163],[-96.927607558897179,32.763705043140234],[-96.927637151342438,32.763867890620091],[-96.927858937935937,32.76415064896436],[-96.927942332921532,32.764226156057092],[-96.928027339283432,32.764401909327859],[-96.928027984711989,32.764556554334675],[-96.928005171882262,32.764696579887818],[-96.927988043031576,32.76471776860172],[-96.927863103027605,32.764872326602664],[-96.927592411767662,32.765133784064687],[-96.927463643217379,32.765324018389798],[-96.927329958110761,32.765600091411898],[-96.927261144457248,32.765769006795871],[-96.927129753909625,32.766091530330662],[-96.92700551869828,32.766503746078499],[-96.927001559683873,32.766727058080299],[-96.927134209697869,32.766891958991621],[-96.927204658074402,32.766932942089554],[-96.927484645032663,32.767008073020257],[-96.927536025501453,32.767073153067095],[-96.927550887798134,32.767190749791752],[-96.92750784051718,32.767324791982126],[-96.927497322356047,32.767333774705072],[-96.92736869244915,32.767443640538005],[-96.927342652755527,32.76746588193059],[-96.927311133851106,32.767477274948753],[-96.927028822940656,32.767579321431512],[-96.926737950496843,32.767735998417308],[-96.926548938332644,32.767882517202906],[-96.926530462462992,32.767904176450315],[-96.926420871590821,32.768032664237737],[-96.92635815245049,32.768129233742698],[-96.926305695592845,32.768220204268623],[-96.926233962976411,32.768442657404094],[-96.926158133215409,32.768705144639902],[-96.926127470004062,32.768905207821476],[-96.926117088389034,32.76910839342132],[-96.926141799383927,32.769221576190894],[-96.926157839518567,32.769295041491333],[-96.926167179314163,32.769310095214919],[-96.926404980467012,32.769693345876455],[-96.926531308865933,32.769928324020434],[-96.926622422262838,32.770333246819419],[-96.926703577243998,32.7707265830837],[-96.926729244376588,32.771190810990191],[-96.926709169098601,32.771373217675468],[-96.926604530483559,32.772324038420074],[-96.926603992686253,32.772328930021047],[-96.926597629014154,32.772351876450784],[-96.9265551590954,32.77250498470687],[-96.926524393609839,32.772615906399949],[-96.926496463096143,32.772688825589888],[-96.926449695870019,32.772810925996602]]],[[[-97.00055093471903,32.779368681941769],[-96.99881986264181,32.77935276205217],[-96.998726001118925,32.779351489970828],[-96.998653400533968,32.779351035310896],[-96.995578927082633,32.779321782442857],[-96.995551079296078,32.77932178165824],[-96.995557781466232,32.779649650934417],[-96.995551372666739,32.780139585921084],[-96.995559209188059,32.781644766232027],[-96.995558032750125,32.781826187978133],[-96.995548924697246,32.782587325133782],[-96.995529438962166,32.784008560397922],[-96.99551974043942,32.784836584128605],[-96.995515853006637,32.785225751192726],[-96.995470547562746,32.785974753962755],[-96.995481584307768,32.785975127108451],[-97.000442844955501,32.786035112190078],[-97.000608938326963,32.786033541316456],[-97.000775103102896,32.786024797770551],[-97.000940522495668,32.786008897138473],[-97.001104764987446,32.78598588373589],[-97.001267401832663,32.785955815498809],[-97.001428008964169,32.785918771256775],[-97.001586168150112,32.785874848048131],[-97.001741464855741,32.785824161070892],[-97.001893494745659,32.785766841120939],[-97.002041861400414,32.785703039057843],[-97.002186177560347,32.785632920410968],[-97.00232606714772,32.785556669040773],[-97.002461164343174,32.785474482598964],[-97.002591117716406,32.785386577141296],[-97.002715587223292,32.785293180733078],[-97.002834248365161,32.785194537158816],[-97.002946792218012,32.78509090501926],[-97.003052924509191,32.784982553191639],[-97.003152367609474,32.784869765393445],[-97.003244863914688,32.784752834837825],[-97.003330171453172,32.784632067747488],[-97.003408067266818,32.784507778009768],[-97.003478348334724,32.78438029171636],[-97.003540831834172,32.784249939035931],[-97.003595353809928,32.784117062316461],[-97.003641772671216,32.78398200712887],[-97.003679966937426,32.783845125829593],[-97.003709837433348,32.783706775803743],[-97.003731306277984,32.783567317634514],[-97.003744316884223,32.78342711510291],[-97.003748293642758,32.783332526905383],[-97.003773448206829,32.782172300568142],[-97.003773990669998,32.782126307963409],[-97.003770006810015,32.78198571547054],[-97.003757529575537,32.781845478458926],[-97.003736592173468,32.781705962763674],[-97.003707249275607,32.781567531999713],[-97.003669577018755,32.78143054756206],[-97.003623674130637,32.781295366844347],[-97.003569659850129,32.781162341383933],[-97.003507675948384,32.781031820522827],[-97.003437883811841,32.780904142304713],[-97.003360465249628,32.78077964162614],[-97.003275622754515,32.780658642109962],[-97.003183578288514,32.78054146059592],[-97.003084570249882,32.780428401649289],[-97.002978857632968,32.780319761270988],[-97.002866716994802,32.780215821406571],[-97.002748440172624,32.780116854412043],[-97.002624335497487,32.78002311856357],[-97.00249472782356,32.779934857155077],[-97.002359954136082,32.779852302011967],[-97.002220366961751,32.779775667243896],[-97.002076329947784,32.779705153662249],[-97.001928219076461,32.779640944289334],[-97.001776420411247,32.77958320792191],[-97.001621329202194,32.779532093688445],[-97.001463351879451,32.779487735613813],[-97.001302899726525,32.779450249762775],[-97.001140391019106,32.77941973428932],[-97.000976250043564,32.779396266703415],[-97.000810904726933,32.779379911045709],[-97.000644785917402,32.779370707027276],[-97.00055093471903,32.779368681941769]]]]},"properties":{"OBJECTID":1,"Shape_Length":32401.32851980118,"Shape_Area":10949130.959938705,"AREA_SQFT":118279573.71962132,"AREA_ACRES":2715.3253838296905,"AREA_SQMILES":4.2426959122338914}}]
}