{
  "type" : "FeatureCollection",
  "features" : [{"type":"Feature","id":1,"geometry":{"type":"Polygon","coordinates":[[[-97.000250078109801,32.901003103696048],[-97.000940543354361,32.90147773006791],[-97.000940543334522,32.90506582407086],[-97.008252986509802,32.907825022760591],[-97.008241632064284,32.909062687194172],[-97.018177018239982,32.917601441578618],[-97.020050547476004,32.919179748462668],[-97.02004876710933,32.919365324949737],[-97.020041325410915,32.920141248860681],[-97.021368582232839,32.920916622589807],[-97.023946682071724,32.922579912703419],[-97.025804021826573,32.92402142990403],[-97.027938578316878,32.925684719914294],[-97.030849335489961,32.927791554413972],[-97.032289704093898,32.928926396100856],[-97.033034852059387,32.889287039079356],[-97.033237858431121,32.878481596643191],[-97.033284781412291,32.875498134438693],[-97.033287761271012,32.875318111164063],[-97.033321379475211,32.873138566722012],[-97.033425214711912,32.866320946627717],[-97.033454871362807,32.864380514489291],[-97.033488911786023,32.862470374173405],[-97.033500136166552,32.861840988966321],[-97.033548944832461,32.859087082920169],[-97.033597668012703,32.856353813864942],[-97.033597671326547,32.856353575388276],[-97.033597671838606,32.856353525701593],[-97.033650572591455,32.853385515455159],[-97.033678760991691,32.85158251345397],[-97.033792448033793,32.844461232258375],[-97.033825312799507,32.842375137318712],[-97.033887116274457,32.838544819868396],[-97.033840925655582,32.838539253536808],[-97.033841485263906,32.838508503542201],[-97.033028999080997,32.838311387550114],[-97.031030567345013,32.837732296478052],[-97.030519605820444,32.837641459359112],[-97.029668000600836,32.837550621232616],[-97.027646859286008,32.837527911476869],[-97.024138248665153,32.837664168524313],[-97.023434255069802,32.837823134143491],[-97.02250316910154,32.83803887396023],[-97.022298782870479,32.838186485499939],[-97.022185236739048,32.838720158108991],[-97.021992205465068,32.839231120566026],[-97.022083043771175,32.842308251475565],[-97.022083043137314,32.848224063435836],[-97.022060335017244,32.849518502140384],[-97.02185594887132,32.851778093454357],[-97.021390405274374,32.857512230415146],[-97.021288212965942,32.858522800479619],[-97.021095182378531,32.85961285410265],[-97.020788604056577,32.860419041210264],[-97.020447962511312,32.861111678287948],[-97.020141385870915,32.861656706089583],[-97.019391973505378,32.862644567065168],[-97.016803096020652,32.865869308098972],[-97.015758460202079,32.867209166371268],[-97.014827374091226,32.868117543937835],[-97.014500989428896,32.868379640702898],[-97.014077961472978,32.868719345697109],[-97.013294485613102,32.869218952824731],[-97.012431527159194,32.869536885207367],[-97.011330117303061,32.869809398836168],[-97.009785875091382,32.869991074720893],[-97.008775305142407,32.870206814573613],[-97.008037246539175,32.870490682490306],[-97.007321898948348,32.870808614186679],[-97.006708744670092,32.871285513921677],[-97.005982041843012,32.871864604197413],[-97.00534617632087,32.872750273159262],[-97.004903343396975,32.873624586486031],[-97.004698957494583,32.874192323513057],[-97.004596765474943,32.874941735326153],[-97.004596764759697,32.878938598750722],[-97.004585411404136,32.879506335281405],[-97.00444915312741,32.880142199664427],[-97.004097157278906,32.880914320906136],[-97.003921834792052,32.881335362610194],[-97.0004142316902,32.885650245141996],[-96.999547296230105,32.886607546485386],[-96.999078366692899,32.887125357121583],[-96.99877179038873,32.88736380484886],[-96.996523555136093,32.885467566800827],[-96.990614041096507,32.880540068601043],[-96.987742403857382,32.883991585127411],[-96.986217720879353,32.885488546450979],[-96.985136581837949,32.886680570745405],[-96.984666440537751,32.887185974007494],[-96.991140018829952,32.892709948336979],[-96.991244060288011,32.892770926454759],[-96.991250020344395,32.897179946508857],[-96.996780015291208,32.897219954882338],[-96.996800022233728,32.900879949687479],[-97.000100020836541,32.900899953958408],[-97.000250078109801,32.901003103696048]]]},"properties":{"OBJECTID":1,"Shape_Length":26626.895848972581,"Shape_Area":21059293.85191926,"AREA_SQFT":227468630.43523055,"AREA_ACRES":5221.961212929994,"AREA_SQMILES":8.1593143952031166}}]
}