{
  "type" : "FeatureCollection",
  "features" : [{"type":"Feature","id":1,"geometry":{"type":"MultiPolygon","coordinates":[[[[-96.741703182694295,33.203649780199719],[-96.741296193617075,33.203673285695572],[-96.740848698510348,33.20371257926098],[-96.740081875943972,33.203743958002462],[-96.740072026807781,33.208193899451551],[-96.741660831025385,33.208233257311825],[-96.741715639285502,33.203824341316235],[-96.741717809857036,33.203649786477826],[-96.741703182694295,33.203649780199719]]],[[[-96.745865148700048,33.206787572941039],[-96.745772969963298,33.210226430535698],[-96.745761881789775,33.210640066868613],[-96.745880533215995,33.210639982974051],[-96.745905514161308,33.206875014119419],[-96.746523029930259,33.206886704830346],[-96.746526174290452,33.206796850591068],[-96.745865148700048,33.206787572941039]]],[[[-96.616482364758269,33.20761046087852],[-96.616984927882754,33.207620784232951],[-96.617099853167389,33.207621241179432],[-96.617113240742512,33.207330457229865],[-96.617129835373177,33.206691054115751],[-96.620633238534054,33.206830389093227],[-96.620710599233917,33.205077686713459],[-96.621502280572216,33.205100587079002],[-96.621583608811008,33.203736927865585],[-96.623202204816891,33.20381623078368],[-96.623251275905659,33.203122843970647],[-96.625865836793565,33.203228063632253],[-96.625818337520656,33.204195000633817],[-96.625802173651152,33.204571372277407],[-96.626232045661155,33.204577819444239],[-96.626211801295867,33.205108073660298],[-96.627010255774906,33.205120044528989],[-96.627041058105647,33.20451572500324],[-96.627822199569565,33.204534304108094],[-96.627861780031253,33.203901251418685],[-96.627097835792071,33.20388155587289],[-96.627125425770487,33.203235953529443],[-96.627146886352392,33.202609502584572],[-96.627163219293948,33.202263372486186],[-96.627182794060033,33.201957151157977],[-96.627964376901105,33.201953744246524],[-96.628008354692497,33.201113207195213],[-96.627262092964102,33.201108897286005],[-96.627311286403469,33.199829972245936],[-96.62810969238275,33.199841936392353],[-96.628865106831242,33.199838131379664],[-96.628952336546448,33.198614755388171],[-96.6296897632607,33.198610677164034],[-96.629734318897277,33.197973574253773],[-96.629851366548692,33.196383651552004],[-96.629994111040972,33.19462229871128],[-96.626823232143664,33.194512945547814],[-96.626853069128529,33.1939154828911],[-96.623808703165622,33.193854682267421],[-96.623823153089234,33.192943601669882],[-96.623854237691944,33.191903567647998],[-96.623801941060108,33.191902782281694],[-96.623802904755181,33.191857437375269],[-96.623829931733241,33.191393260372493],[-96.623891360914413,33.1913873111708],[-96.623922238901685,33.190549324853279],[-96.623932425226656,33.190069774869826],[-96.624520745945389,33.190078608342326],[-96.624517857560861,33.189983724299594],[-96.624540584187002,33.188105113721974],[-96.623720309695287,33.188088673825078],[-96.621545006885427,33.188027118919813],[-96.619720267077511,33.187969428372064],[-96.619510613152244,33.188756615898853],[-96.620018260771744,33.188830231891124],[-96.621432409333678,33.189401308582923],[-96.621411641629578,33.189954923178313],[-96.621507740372479,33.189971487447174],[-96.621437951733554,33.191292714223707],[-96.620179322706662,33.191247666629742],[-96.620147282597571,33.192445755228334],[-96.620138781342789,33.193267582252936],[-96.619833929392314,33.1932657436003],[-96.618732600154658,33.193240917980766],[-96.617703939078581,33.193219926671823],[-96.61690850748073,33.193262920209243],[-96.616107887064672,33.193242602982856],[-96.615253134349757,33.193192599869789],[-96.615095859180215,33.194089154655252],[-96.613454969242468,33.19406713755631],[-96.613477487400289,33.193204285381533],[-96.612749416547075,33.193193290009845],[-96.612649489507035,33.193661862128991],[-96.612572197266047,33.193989202566314],[-96.612542644978788,33.194339255792599],[-96.612518740981372,33.195457743346523],[-96.612428616502285,33.197226748465802],[-96.612418047117615,33.197255006038269],[-96.612400246468098,33.197253809278941],[-96.612388736659639,33.197333358101652],[-96.612358792475447,33.197548703540939],[-96.612337467035431,33.197705074777133],[-96.61232750896373,33.197750283129061],[-96.612280256628068,33.197972238842318],[-96.612971250061875,33.197975756563807],[-96.61297085537727,33.198055520886925],[-96.612970802495141,33.198070683689451],[-96.612969914512576,33.198329032534055],[-96.61296812858744,33.198603908266819],[-96.612968778370046,33.198626933291003],[-96.613435120030346,33.198631578026067],[-96.613437933017678,33.198499871323612],[-96.613443483424277,33.198240087053193],[-96.613448252531029,33.198016801612091],[-96.613448619549629,33.197999625811612],[-96.613449077763747,33.197978186087333],[-96.613515284078161,33.197978522200906],[-96.614195854689186,33.197957183274148],[-96.61418985534975,33.198620978174169],[-96.615101372508164,33.198618239769992],[-96.615762597604885,33.198622714959498],[-96.615843556404826,33.198621186965994],[-96.615847802224565,33.198621102205877],[-96.615834449717781,33.201385181897734],[-96.6158047735655,33.20438527956204],[-96.616575138832417,33.204410638959317],[-96.616542571677982,33.205362679489149],[-96.616526088319063,33.205598846164413],[-96.616526804081602,33.206101925021443],[-96.616484923160044,33.206723944059149],[-96.616472284949594,33.207048136544472],[-96.616471616908214,33.20734776829368],[-96.616490400768669,33.207348051973327],[-96.616482364758269,33.20761046087852]]]]},"properties":{"OBJECTID":1,"Shape_Length":11307.013364948287,"Shape_Area":1930483.6372666699,"AREA_SQFT":20844767.480981167,"AREA_ACRES":478.5300156331765,"AREA_SQMILES":0.74770314942683824}}]
}